,Name,City,Country,Arena,Capactity,Logo URL,Division,City,State,,,,,,,,,,,,,,,,,,,,
Team,老鹰,亚特兰大,USA,飞利浦球馆,20000,http://gmgames.org/dm16logos/Team0.png,东南,亚特兰大,乔治亚州,,,,,,,,,,,,,,,,,,,,
Team,凯尔特人,波士顿,USA,TD北岸花园,18700,http://gmgames.org/dm16logos/Team1.png,大西洋,波士顿,麻萨诸塞州,,,,,,,,,,,,,,,,,,,,
Team,篮网,布鲁克林,USA,巴克莱中心,19000,http://gmgames.org/dm16logos/Team2.png,大西洋,布鲁克林,纽约,,,,,,,,,,,,,,,,,,,,
Team,黄蜂,夏洛特,USA,时代华纳中心,19000,http://gmgames.org/dm16logos/Team3.png,东南,夏洛特,北卡罗莱纳,,,,,,,,,,,,,,,,,,,,
Team,公牛,芝加哥,USA,联合中心,23000,http://gmgames.org/dm16logos/Team4.png,中央,芝加哥,伊利诺斯州,,,,,,,,,,,,,,,,,,,,
Team,骑士,克利夫兰,USA,速贷球馆,21000,http://gmgames.org/dm16logos/Team5.png,中央,克利夫兰,俄亥俄州,,,,,,,,,,,,,,,,,,,,
Team,小牛,达拉斯,USA,美国航空中心,19000,http://gmgames.org/dm16logos/Team6.png,西南,达拉斯,德州,,,,,,,,,,,,,,,,,,,,
Team,掘金,丹佛,USA,百事中心球馆,19000,http://gmgames.org/dm16logos/Team7.png,西北,丹佛,科罗拉多州,,,,,,,,,,,,,,,,,,,,
Team,活塞,底特律,USA,奥本山的宫殿,22000,http://gmgames.org/dm16logos/Team8.png,中央,底特律,密歇根,,,,,,,,,,,,,,,,,,,,
Team,勇士,金州,USA,甲骨文球馆,20000,http://gmgames.org/dm16logos/Team9.png,太平洋,金州,加州,,,,,,,,,,,,,,,,,,,,
Team,火箭,休斯顿,USA,丰田中心,18000,http://gmgames.org/dm16logos/Team10.png,西南,休斯顿,德州,,,,,,,,,,,,,,,,,,,,
Team,步行者,印第安纳州,USA,银行家生活,19000,http://gmgames.org/dm16logos/Team11.png,中央,印第安纳州,印第安纳州,,,,,,,,,,,,,,,,,,,,
Team,快船,洛杉矶,USA,斯台普斯中心球馆,19000,http://gmgames.org/dm16logos/Team12.png,太平洋,洛杉矶,加州,,,,,,,,,,,,,,,,,,,,
Team,湖人,洛杉矶,USA,斯台普斯中心球馆,19000,http://gmgames.org/dm16logos/Team13.png,太平洋,洛杉矶,加州,,,,,,,,,,,,,,,,,,,,
Team,灰熊,孟菲斯,USA,联邦快递球馆,18000,http://gmgames.org/dm16logos/Team14.png,西南,孟菲斯,田纳西州,,,,,,,,,,,,,,,,,,,,
Team,热火,迈阿密,USA,美航球馆,20000,http://gmgames.org/dm16logos/Team15.png,东南,迈阿密,佛罗里达,,,,,,,,,,,,,,,,,,,,
Team,雄鹿,密尔沃基,USA,布拉德利中心,19000,http://gmgames.org/dm16logos/Team16.png,中央,密尔沃基,威斯康辛州,,,,,,,,,,,,,,,,,,,,
Team,森林狼,明尼苏达州,USA,目标中心,20000,http://gmgames.org/dm16logos/Team17.png,西北,明尼苏达州,明尼苏达州,,,,,,,,,,,,,,,,,,,,
Team,鹈鹕,新奥尔良,USA,冰沙王中心球馆,19000,http://gmgames.org/dm16logos/Team18.png,西南,新奥尔良,路易斯安那州,,,,,,,,,,,,,,,,,,,,
Team,尼克斯,纽约,USA,麦迪逊广场花园,20000,http://gmgames.org/dm16logos/Team19.png,大西洋,纽约,纽约,,,,,,,,,,,,,,,,,,,,
Team,雷霆,俄克拉荷马城,USA,切萨皮克能源球馆,19000,http://gmgames.org/dm16logos/Team20.png,西北,俄克拉荷马城,俄克拉何马州,,,,,,,,,,,,,,,,,,,,
Team,魔术,奥兰多,USA,安利球馆,19000,http://gmgames.org/dm16logos/Team21.png,东南,奥兰多,佛罗里达,,,,,,,,,,,,,,,,,,,,
Team,76人,费城,USA,富国银行,22000,http://gmgames.org/dm16logos/Team22.png,大西洋,费城,宾西法尼亚,,,,,,,,,,,,,,,,,,,,
Team,太阳,凤凰城,USA,美国空中走廊中心,18000,http://gmgames.org/dm16logos/Team23.png,太平洋,凤凰城,亚利桑那州,,,,,,,,,,,,,,,,,,,,
Team,开拓者,波特兰,USA,摩达中心球馆,20000,http://gmgames.org/dm16logos/Team24.png,西北,波特兰,俄勒冈州,,,,,,,,,,,,,,,,,,,,
Team,国王,萨克拉门托,USA,黄金一号球馆,17000,http://gmgames.org/dm16logos/Team25.png,太平洋,萨克拉门托,加州,,,,,,,,,,,,,,,,,,,,
Team,马刺,圣安东尼奥,USA,T中心球馆,19000,http://gmgames.org/dm16logos/Team26.png,西南,圣安东尼奥,德州,,,,,,,,,,,,,,,,,,,,
Team,猛龙,多伦多,Canada,加拿大航空中心,20000,http://gmgames.org/dm16logos/Team27.png,大西洋,多伦多,加拿大,,,,,,,,,,,,,,,,,,,,
Team,爵士,犹他州,USA,能源方案球馆,20000,http://gmgames.org/dm16logos/Team28.png,西北,犹他州,犹他州,,,,,,,,,,,,,,,,,,,,
Team,奇才,华盛顿,USA,凡泽中心球馆,20000,http://gmgames.org/dm16logos/Team29.png,东南,华盛顿,特区,,,,,,,,,,,,,,,,,,,,
NewFranchiseLogo,,,,,,http://gmgames.org/dm16logos/Team30.png,,,,,,,,,,,,,,,,,,,,,,,
,,,,,,,,,,,,,,,,,,,,,,,,,,,,,
Type,FirstName,Last Name,Position,Age,Height,Weight,Team ID,Defence,TurnOvers,FTA,FTPerc,2PTA,2PTPerc,3PTA,ThreePerc,OffReb,Fame,DefReb,FastBreak,Assists,Personality,Potential,Steals,Blocks,Stamina,Trait,,,
//球员,//姓,//名,//位置,//年龄,//身高,//体重,//球队,//防御,//失误,//罚篮出手,//罚中率,//2分出手,//2分中率,//3分出手,//3分中率,//进攻篮板,//名望,//防守篮板,//快攻,//助攻,//个性,//潜力,//抢断,//盖帽,//体力,//特性,//城市,//省份,
// 索引,//仅一个,//全部,//C PF SF SG PG,//19-40,//170-222,//160-290,//0-29,//24-99,//0.3-4,//0.3-9,//0.3-0.9,//2-17,//0.3-0.7,//0.1-9,//0.1-0.5,//0.2-5,//1-100,//1-11,//10-100,//0.2-11,//15-98,//35-85,//0.1-2,//0-3,//32-100,//CG EX HF HH IH PT R SP,//城市,//省份,
players,詹姆斯,哈登,SG,28,200,200,10,76,4.3,9.9,0.87,10.1,0.51,10.7,0.41,0.5,97,4.5,96,8.9,66,89,1.8,0.7,92,,,,
players,扬尼斯,阿德托昆博,SF,23,200,200,16,87,2.8,9.2,0.76,17.3,0.53,1.7,0.33,2.1,93,8.1,82,4.7,83,93,1.5,1.3,93,,,,
players,斯蒂芬,库里,PG,30,200,200,9,63,3,6.2,0.9,7.2,0.51,10,0.41,0.7,87,4.4,95,6.5,56,71,1.6,0.1,88,,,,
players,安东尼,戴维斯,PF,25,200,200,18,92,2.1,7.9,0.81,16.4,0.53,2.1,0.34,2.4,93,8.2,84,2.4,89,90,1.3,2.1,94,,,,
players,勒布朗,詹姆斯,SF,33,200,200,5,83,4.4,6,0.74,13.8,0.54,4.8,0.36,1.1,91,7,89,8.9,75,70,1.6,1,93,,,,
players,达米安,利拉德,PG,28,200,200,24,58,3.1,6.6,0.9,10.6,0.48,8.2,0.37,0.7,81,3.8,82,6.5,52,66,1,0.4,89,,,,
players,凯文,杜兰特,SF,29,200,200,9,82,3.1,5.6,0.89,11.6,0.51,6,0.38,0.5,90,6.3,90,5.5,71,76,0.8,1.9,91,,,,
players,拉塞尔,威斯布鲁克,PG,29,200,200,20,81,4.6,6.9,0.72,17.2,0.49,4.4,0.34,1.7,89,7.6,77,10.3,76,75,2,0.2,90,,,,
players,德马库斯,考辛斯,C,27,200,200,18,99,5,8.2,0.75,11.9,0.5,6.1,0.34,2.2,93,10.7,79,5.4,93,84,1.6,1.6,95,,,,
players,凯里,欧文,PG,26,200,200,1,55,2.3,4.5,0.89,11.8,0.5,6.7,0.37,0.6,81,3.1,85,5,48,70,1.1,0.3,87,,,,
players,维克多,奥拉迪波,SG,26,200,200,11,70,2.9,5.3,0.81,12.1,0.49,6.2,0.37,0.5,85,4.8,83,4.1,61,76,2.1,0.8,90,,,,
players,德文,布克,SG,21,200,200,23,54,3.6,6,0.9,11.9,0.47,6.8,0.36,0.4,75,4,78,4.9,47,70,0.9,0.3,88,,,,
players,德玛尔,德罗赞,SG,28,200,200,27,56,2.2,7.2,0.83,14.6,0.48,3.5,0.34,0.8,82,3.2,76,5.2,50,65,1.2,0.3,89,,,,
players,乔尔,恩比德,PF,24,200,200,22,88,4,7.8,0.79,13.9,0.49,3.3,0.33,2.3,87,9,75,3.2,85,82,0.6,1.9,91,,,,
players,布拉德利,比尔,SG,25,200,200,29,56,2.4,5,0.79,12.1,0.48,6.6,0.36,0.8,79,3.7,80,4.2,51,70,1.2,0.4,90,,,,
players,路易斯,威廉姆斯,SG,31,200,200,12,48,3,6.3,0.9,9.4,0.46,7.4,0.37,0.5,73,2.1,77,5.3,42,48,1.1,0.2,87,,,,
players,肯巴,沃克,PG,28,200,200,3,53,2.2,5.7,0.85,10.3,0.46,7.6,0.37,0.4,76,2.9,78,5.8,46,59,1.2,0.3,88,,,,
players,克里斯塔普斯,波尔津吉斯,PF,22,200,200,19,78,1.9,5.7,0.79,13.7,0.48,4.8,0.36,1.3,83,5.3,78,1.2,72,80,0.8,2.4,91,,,,
players,吉米,巴特勒,SF,28,200,200,17,64,1.9,7.1,0.86,12.4,0.48,3.4,0.35,1.3,84,4.1,76,5,60,69,2,0.4,92,,,,
players,布雷克,格里芬,PF,29,200,200,8,64,2.8,6.5,0.8,11.9,0.47,5.8,0.35,1.4,78,6.5,74,5.5,60,60,0.9,0.3,91,,,,
players,拉玛库斯,阿尔德里奇,PF,33,200,200,26,65,1.5,5.1,0.84,16.3,0.49,1.4,0.32,3.4,78,5,73,2,71,53,0.5,1.2,91,,,,
players,保罗,乔治,SF,28,200,200,20,64,2.7,4.9,0.8,9.3,0.47,7.6,0.38,0.9,81,4.5,83,3,58,66,2.2,0.5,91,,,,
players,CJ,麦科勒姆,SG,26,200,200,24,51,1.9,3.1,0.86,12.5,0.47,5.8,0.37,0.6,74,3.3,79,3.2,45,58,1,0.4,89,,,,
players,克莱,汤普森,SG,28,200,200,9,52,1.8,1.3,0.86,8.8,0.48,7.2,0.38,0.4,75,3.6,85,2.6,45,57,0.7,0.6,89,,,,
players,卡尔,安东尼,PF,22,200,200,17,83,1.9,4.4,0.85,10,0.49,3.6,0.35,2.9,84,9.2,79,2.3,83,81,0.8,1.4,92,,,,
players,克里斯,米德尔顿,SG,26,200,200,16,56,2.3,4,0.87,10.5,0.46,5.3,0.34,0.5,75,4.8,73,4.2,49,59,1.3,0.2,90,,,,
players,TJ,沃伦,SF,24,200,200,23,51,1.4,4.1,0.75,14.6,0.48,1.5,0.3,1.8,70,3.4,64,1.4,52,56,1,0.6,88,,,,
players,丹尼斯,施罗德,PG,24,200,200,0,48,2.6,4,0.87,13.5,0.46,3.8,0.32,0.7,70,2.4,66,6.4,44,57,1.1,0.1,85,,,,
players,克里斯,保罗,PG,33,200,200,10,68,2.2,3.9,0.9,7.3,0.47,6.8,0.37,0.6,83,5.1,81,8.3,60,60,1.8,0.3,87,,,,
players,多诺万,米切尔,SG,21,200,200,28,52,2.6,3.2,0.84,9.7,0.45,6.5,0.35,0.6,73,2.8,73,3.4,46,67,1.5,0.4,87,,,,
players,约翰,沃尔,PG,27,200,200,29,67,3.6,6,0.72,12.3,0.45,4,0.34,0.5,80,3,70,9.3,58,65,1.3,1.1,88,,,,
players,泰瑞克,埃文斯,SF,28,200,200,14,54,2.1,3.8,0.8,10.1,0.46,5.4,0.35,0.9,71,4.2,73,4.9,49,49,1,0.3,87,,,,
players,埃里克,戈登,SG,29,200,200,10,44,2,3.9,0.82,5.7,0.44,9,0.36,0.4,71,2,72,2.4,38,48,0.7,0.4,87,,,,
players,朱,霍勒迪,SG,28,200,200,18,59,2.5,3,0.78,10.1,0.47,4.8,0.34,0.6,75,3.7,71,5.3,52,57,1.4,0.7,90,,,,
players,阿隆,戈登,PF,22,200,200,21,63,1.9,4.2,0.72,9.2,0.45,5.8,0.35,1.7,74,6.6,71,2.2,61,66,0.9,0.7,90,,,,
players,哈里森,巴恩斯,SF,26,200,200,6,51,1.5,3.9,0.83,11.3,0.45,4,0.33,1.1,67,5.5,67,1.9,48,49,0.7,0.2,89,,,,
players,托拜厄斯,哈里斯,SF,26,200,200,12,50,1.1,2.8,0.82,9.2,0.45,5.8,0.36,0.7,69,4.4,73,2,45,53,0.8,0.3,88,,,,
players,林,书豪,PG,29,200,200,2,31,3,7,0.9,10,0.42,2,0.34,0.3,60,1,65,4,27,35,0.2,0.1,81,,,,
players,埃文,富尼耶,SF,25,200,200,21,45,1.8,3.1,0.88,8.5,0.45,5.6,0.35,0.5,67,2.7,71,2.9,40,50,0.9,0.3,88,,,,
players,安德鲁,威金斯,SG,23,200,200,17,52,1.7,3.9,0.63,11.6,0.45,4.2,0.33,1,73,3.3,67,1.8,48,64,1.1,0.6,89,,,,
players,凯文,乐福,PF,29,200,200,5,62,1.5,4.6,0.88,7.1,0.45,5.4,0.36,1.9,73,7.4,73,1.6,61,51,0.7,0.4,87,,,,
players,马克,加索尔,PF,33,200,200,14,72,2.7,4.9,0.84,10.4,0.44,4.3,0.33,1.2,71,7.2,65,3.9,66,41,0.7,1.5,90,,,,
players,尼古拉,武切维奇,C,27,200,200,21,72,1.9,1.6,0.82,10.8,0.47,4.1,0.31,1.8,74,7.5,66,3.3,69,56,1,1.1,89,,,,
players,加里,哈里斯,SG,23,200,200,7,50,1.9,2.4,0.84,7.4,0.46,6,0.36,0.6,73,2.2,74,3.1,45,63,1.8,0.3,89,,,,
players,扎克,拉文,SG,23,200,200,4,50,1.4,4.3,0.82,9.4,0.43,5.2,0.35,0.4,69,4.1,67,2.5,43,58,1.1,0.1,83,,,,
players,戈兰,德拉季奇,PG,32,200,200,15,48,2.3,3.8,0.77,10.4,0.44,4.2,0.33,0.7,67,3.3,66,4.8,43,38,0.9,0.2,85,,,,
players,迈克,康利,PG,30,200,200,14,45,1.5,5.5,0.8,7.6,0.42,6.4,0.34,0.3,68,2.3,63,4.1,39,41,1,0.3,85,,,,
players,埃里克,布莱索,PG,28,200,200,16,59,2.9,4.4,0.77,8.5,0.45,4.9,0.33,0.6,74,2.9,67,4.3,52,55,2.1,0.6,86,,,,
players,JJ,雷迪克,SG,34,200,200,22,40,1.4,3.1,0.9,6.1,0.43,6.6,0.36,0.3,63,2.5,71,3.2,35,35,0.6,0.1,86,,,,
players,卡梅罗,安东尼,PF,34,200,200,20,53,1.3,2.9,0.78,9.6,0.44,5.8,0.34,0.7,68,5.3,68,1.4,48,35,0.6,0.6,89,,,,
players,罗德尼,胡德,SF,25,200,200,5,41,1.6,2.4,0.88,7.4,0.43,6.7,0.36,0.4,65,2.5,70,1.6,36,46,0.8,0.2,85,,,,
players,尼科拉,约季奇,SF,23,200,200,7,75,2.7,3.9,0.85,9,0.46,3.6,0.34,2.6,80,7.8,69,5.6,76,74,1.2,0.7,89,,,,
players,本,西蒙斯,PG,22,200,200,22,76,3.7,4.5,0.6,13.1,0.47,1,0.29,1.8,81,6,62,7.3,72,78,1.8,0.9,89,,,,
players,尼古拉,米罗蒂奇,SF,27,200,200,18,58,1.3,3.1,0.8,5.8,0.44,6.5,0.36,1.1,70,5.6,73,1.6,54,52,0.8,0.7,85,,,,
players,凯尔,洛瑞,PG,32,200,200,27,58,2.5,3.6,0.86,4.9,0.43,7.6,0.37,0.9,75,4.8,71,6.4,53,48,1.2,0.2,86,,,,
players,蒂姆,哈达威二世,SG,26,200,200,19,47,1.6,3.2,0.78,7.3,0.43,7,0.34,0.6,67,3.5,65,2.9,43,49,1.1,0.2,87,,,,
players,贾马尔,穆雷,SG,21,200,200,7,45,2.1,2.8,0.9,7.8,0.44,5.1,0.34,1,69,2.5,69,2.9,43,62,0.8,0.3,86,,,,
players,科怀,伦纳德,SF,27,200,200,26,66,1.8,4.2,0.82,8.4,0.46,3.9,0.33,0.7,77,4,69,2.3,58,62,2,1,84,,,,
players,布兰顿,英格拉姆,SF,20,200,200,13,55,2.5,5,0.68,11.3,0.44,1.7,0.33,0.9,70,4.3,65,3.7,51,65,0.8,0.7,89,,,,
players,达尼罗,加里纳利,SF,29,200,200,12,48,1.2,3.7,0.9,7.1,0.42,5.8,0.33,0.4,66,4.3,62,2.3,42,40,0.7,0.3,87,,,,
players,凯尔,库兹马,PF,22,200,200,13,50,1.7,2.6,0.7,8,0.44,5.2,0.34,1.2,67,4.7,67,1.8,48,55,0.6,0.4,87,,,,
players,奥斯汀,里弗斯,PG,25,200,200,12,44,1.8,2.7,0.65,7.4,0.43,6.3,0.36,0.4,67,1.8,68,3.7,39,49,1.2,0.3,86,,,,
players,德怀特,霍华德,C,32,200,200,3,80,2.8,7.3,0.6,10.7,0.46,1,0.27,3.3,72,9.3,54,1.4,83,44,0.7,1.6,90,,,,
players,德安吉洛,拉塞尔,PG,22,200,200,2,46,3.4,3.4,0.71,9.3,0.43,4.7,0.32,0.7,65,3.2,62,4.4,42,54,0.7,0.2,81,,,,
players,保罗,米尔萨普,PF,33,200,200,7,65,2.1,4.1,0.69,9,0.44,3.6,0.33,1.5,71,4.7,64,3.1,61,40,1.1,1.3,88,,,,
players,劳里,马尔卡宁,PF,21,200,200,4,58,1.2,2.3,0.86,6.5,0.43,6.3,0.35,1.1,68,6.6,67,1.3,54,61,0.6,0.6,88,,,,
players,安德烈,德拉蒙德,C,24,200,200,8,96,2.8,5,0.62,11.1,0.47,1,0.27,5,84,10.6,57,3.7,105,78,1.6,1.5,92,,,,
players,以赛亚,托马斯,PG,29,200,200,13,40,2.9,4.5,0.88,7,0.41,5.9,0.32,0.4,62,1.6,57,4.6,35,36,0.6,0.1,82,,,,
players,小丹尼斯,史密斯,SG,20,200,200,6,48,2.9,2.8,0.68,9.6,0.42,4.8,0.33,0.7,67,3.2,62,5,44,60,1,0.2,85,,,,
players,雷吉,杰克逊,PG,28,200,200,8,43,2.5,2.8,0.84,8.5,0.43,3.8,0.33,0.7,65,2.2,63,5.5,40,41,0.6,0.1,83,,,,
players,乔丹,克拉克森,SG,26,200,200,5,42,1.8,2.4,0.8,8.6,0.43,4,0.33,0.8,63,2.2,63,3.2,39,43,0.8,0.1,82,,,,
players,威尔,巴顿,SG,27,200,200,7,55,1.9,2.6,0.77,7.2,0.43,4.9,0.34,0.8,70,4,66,4.1,50,50,1.1,0.6,87,,,,
players,克林特,卡佩拉,C,24,200,200,10,83,1.5,3.7,0.6,9.4,0.5,1,0.27,3.2,82,7.9,61,1,85,75,0.8,1.9,89,,,,
players,扎克,兰多夫,PF,37,200,200,25,50,2.1,1.9,0.79,10.4,0.44,2.3,0.31,1.8,59,5.2,62,2.1,50,35,0.8,0.2,84,,,,
players,艾弗里,布拉德利,SG,27,200,200,12,41,2.3,1.8,0.76,9.2,0.42,4.6,0.33,0.5,62,2.1,63,2.1,36,39,1.1,0.2,85,,,,
players,朱利叶斯,兰德尔,C,23,200,200,13,55,2.4,4.4,0.69,9.4,0.46,1,0.27,2,66,5.3,55,2.3,56,53,0.5,0.6,85,,,,
players,达里奥,萨里奇,SF,25,200,200,22,53,2,2.4,0.9,6.5,0.43,5,0.34,2.1,68,4.9,66,2.7,54,53,0.7,0.3,87,,,,
players,朗戴,霍利斯,SF,23,200,200,2,56,1.7,4.7,0.79,10.1,0.44,1,0.3,1.5,68,5,58,2.3,54,55,0.8,0.7,86,,,,
players,迪昂,维特斯,SG,26,200,200,15,43,2.3,2.3,0.74,8,0.42,5.7,0.33,0.3,64,2.3,60,3.8,37,44,0.8,0.3,85,,,,
players,奥托,波特,SF,25,200,200,29,60,0.9,1.8,0.85,7.4,0.45,4,0.35,1.3,73,5.1,70,2,56,60,1.6,0.5,88,,,,
players,哈桑,怀特塞德,C,29,200,200,15,79,1.8,3.2,0.73,10.7,0.46,1,0.31,3.2,74,8.8,65,0.8,82,54,0.7,1.6,87,,,,
players,埃内斯,坎特,C,26,200,200,19,60,1.9,2.3,0.87,10,0.47,1,0.26,3.6,67,7,56,1.5,68,50,0.5,0.5,86,,,,
players,杰伦,布朗,SG,21,200,200,1,52,1.7,3.2,0.6,6.8,0.43,4.6,0.34,0.9,70,4.4,66,1.6,48,63,1,0.4,87,,,,
players,尤素夫,努尔基奇,C,23,200,200,24,68,2.5,3.7,0.67,11.9,0.45,1,0.26,2.1,72,6.1,51,1.8,67,61,0.8,1.3,87,,,,
players,乔纳森,西蒙斯,SF,28,200,200,21,41,2,3.2,0.77,8.3,0.43,2.9,0.32,0.9,59,2.5,60,2.3,39,35,0.8,0.3,85,,,,
players,杰拉德,格林,SF,32,200,200,10,41,0.7,2.1,0.82,3.1,0.41,7.7,0.36,0.4,61,2.6,68,0.5,36,35,0.6,0.5,83,,,,
players,史蒂文,亚当斯,C,24,200,200,20,63,1.5,3.3,0.6,9.4,0.49,1,0.27,5.2,75,3.9,60,0.9,78,64,1.2,1,90,,,,
players,斯宾瑟,丁维迪,SG,25,200,200,2,48,1.6,3.5,0.83,5.4,0.41,5.8,0.34,0.5,65,2.8,61,6.7,43,48,0.8,0.3,85,,,,
players,克里斯,邓恩,PG,24,200,200,4,63,3,1.9,0.7,10.8,0.43,2.6,0.32,0.6,71,4.1,61,6.4,55,60,2.1,0.5,85,,,,
players,博扬,博格达诺维奇,SG,29,200,200,11,40,1.2,2.4,0.84,5.6,0.43,4.8,0.34,0.3,61,2.9,65,1.4,35,35,0.7,0.1,85,,,,
players,迈尔斯,特纳,C,22,200,200,11,70,1.6,3.5,0.75,7.7,0.44,2.5,0.3,1.2,73,5.2,59,1.4,65,66,0.5,2.1,88,,,,
players,杰森,塔特姆,SG,20,200,200,1,56,1.3,3.3,0.82,7,0.44,3,0.34,0.7,72,4.4,67,1.4,50,69,0.9,0.8,87,,,,
players,约什,理查德森,SG,24,200,200,15,53,1.9,1.9,0.82,6.7,0.43,4.5,0.34,0.7,69,2.6,65,2.8,48,54,1.3,0.9,88,,,,
players,杰里米,兰姆,SG,26,200,200,3,47,1.2,3,0.85,7.8,0.42,3.2,0.32,0.7,63,3.7,60,2.2,43,44,0.8,0.4,82,,,,
players,贾斯汀,霍勒迪,PG,29,200,200,4,49,1.3,2.6,0.82,5,0.4,6.6,0.35,0.5,63,3.9,62,2.3,43,37,1.1,0.5,86,,,,
players,马尔科姆,布罗格登,SG,25,200,200,16,45,1.4,1.8,0.88,7.2,0.43,3.4,0.33,0.5,64,2.8,64,3.2,40,46,0.9,0.3,85,,,,
players,埃尔弗里德,佩顿,PG,24,200,200,23,53,2.6,2.6,0.64,9,0.45,1.5,0.32,1,66,3,63,6.3,49,52,1.4,0.4,84,,,,
players,德马雷,卡罗尔,SF,31,200,200,2,51,1.5,3.4,0.78,5.7,0.41,5.1,0.33,1.6,62,4.8,60,2,50,35,0.9,0.4,86,,,,
players,艾尔,霍福德,C,32,200,200,1,69,2,1.5,0.73,7.1,0.45,3.3,0.32,1.4,72,6.4,64,5.2,64,45,0.6,1.2,90,,,,
players,考特尼,李,SG,32,200,200,19,44,1.3,1.9,0.9,7,0.42,3.9,0.34,0.5,60,2.9,63,2.8,39,35,1.2,0.2,86,,,,
players,肯塔维奥斯,卡德维尔,SG,25,200,200,13,50,1.3,2.8,0.76,5.4,0.41,5.5,0.34,0.9,66,3.9,62,2,46,49,1.6,0.2,86,,,,
players,韦斯利,马修斯,SG,31,200,200,6,43,1.4,1.7,0.82,4.8,0.41,6.3,0.34,0.4,59,2.8,63,2.9,38,35,1.2,0.2,86,,,,
players,肯特,贝兹莫尔,SG,29,200,200,0,55,2.4,3.2,0.8,6.3,0.41,4.2,0.34,0.4,64,3.6,62,3.6,48,39,1.6,0.7,84,,,,
players,罗波特,考文顿,SF,27,200,200,22,58,1.9,1.8,0.86,3.6,0.41,7,0.35,0.7,68,4.8,65,1.9,52,48,1.6,0.7,88,,,,
players,达伦,科里森,PG,30,200,200,11,48,1.3,2.2,0.9,6.4,0.43,3.1,0.34,0.6,66,2.1,65,5.3,43,38,1.4,0.3,84,,,,
players,伊托万,摩尔,PG,29,200,200,18,39,1.3,0.9,0.69,6.2,0.44,3.8,0.34,0.7,60,2,67,2.1,36,35,0.9,0.1,85,,,,
players,赛尔吉,伊巴卡,PF,28,200,200,27,59,1.2,1.5,0.78,6.5,0.44,3.9,0.33,0.9,67,5.1,64,0.8,54,44,0.3,1.4,86,,,,
players,杰夫,蒂格,PG,30,200,200,17,53,2.7,2.8,0.81,7.6,0.42,3.1,0.33,0.4,69,2.4,60,7.1,46,44,1.5,0.4,86,,,,
players,迈克尔,比斯利,SF,29,200,200,19,46,1.9,2.5,0.77,9.2,0.44,1,0.31,1.4,59,4,60,1.3,46,35,0.5,0.5,80,,,,
players,巴迪,希尔德,SG,24,200,200,25,42,1.4,1,0.87,6.1,0.42,4.8,0.35,0.5,59,2.9,65,1.5,37,41,0.9,0.2,81,,,,
players,鲁迪,戈波特,C,26,200,200,28,82,1.9,5.2,0.69,7.7,0.46,1,0.26,2.7,75,7.1,53,1.4,81,62,0.6,2.4,90,,,,
players,罗宾,洛佩斯,C,30,200,200,4,44,1.8,1.6,0.76,10.6,0.44,1,0.26,2.2,58,2.5,50,2,47,35,0.2,0.8,86,,,,
players,威利,考利,C,24,200,200,25,59,1.5,3.3,0.62,10.1,0.44,1,0.26,1.7,65,5,49,2.2,58,49,1.1,0.9,87,,,,
players,德克,诺维茨基,PF,40,200,200,6,48,0.6,1.6,0.9,5.8,0.42,4.1,0.34,0.4,55,5.3,63,1.6,42,35,0.6,0.5,83,,,,
players,里基,卢比奥,PG,27,200,200,28,52,2.8,3.1,0.86,7,0.41,3.4,0.32,0.5,66,3.7,57,5.2,46,44,1.5,0.1,84,,,,
players,阿伦,克拉布,SG,26,200,200,2,44,1.2,1.7,0.85,3.9,0.4,6.8,0.34,0.4,59,3.9,61,1.6,39,37,0.6,0.4,84,,,,
players,陶林,普林斯,SF,24,200,200,0,49,2.2,1.8,0.83,5.9,0.41,4.7,0.34,0.7,61,4.1,61,2.3,44,44,0.9,0.5,86,,,,
players,德里克,费弗斯,PF,27,200,200,28,57,1.3,2.8,0.69,8.7,0.45,1,0.29,2.5,67,4.8,57,1.3,60,47,0.8,0.9,86,,,,
players,多曼塔斯,萨博尼斯,PF,22,200,200,11,56,2,3.3,0.73,8.6,0.44,1,0.31,2.5,68,5.7,60,2.2,59,58,0.5,0.5,85,,,,
players,鲍比,波蒂斯,PF,23,200,200,4,48,1.3,2.3,0.82,7.3,0.43,2.8,0.32,2.2,63,4.3,59,1.7,51,49,0.6,0.3,82,,,,
players,帕特里克,贝弗利,PG,30,200,200,12,50,2.3,1.5,0.82,5.3,0.41,5.5,0.35,1.5,65,2.6,63,2.9,50,38,1.6,0.5,84,,,,
players,马库斯,莫里斯,PF,28,200,200,1,46,1.2,2.6,0.81,6.5,0.41,3.9,0.33,0.9,62,4.4,59,1.2,43,36,0.5,0.3,84,,,,
players,约纳斯,瓦兰丘纳斯,C,26,200,200,27,58,1.4,2.6,0.82,7.7,0.45,1,0.31,2.3,69,6.1,62,1,60,51,0.4,0.7,84,,,,
players,泰,吉布森,PF,33,200,200,17,54,1.1,2.1,0.77,8.6,0.45,1,0.29,2.5,65,4.8,57,1.3,58,35,0.8,0.7,89,,,,
players,赛迪斯,杨,PF,30,200,200,11,53,1.3,1,0.6,8.3,0.44,2.4,0.32,2.1,66,3.8,62,2.1,54,40,1.5,0.4,89,,,,
players,特雷沃,阿里扎,SF,33,200,200,10,49,0.9,1.4,0.88,2.5,0.41,7.1,0.35,0.5,65,4.1,65,1.6,43,35,1.5,0.2,89,,,,
players,布鲁克,洛佩斯,C,30,200,200,13,51,1.6,2,0.71,6,0.42,4.4,0.3,1.1,61,2.8,55,1.6,48,35,0.4,1.3,83,,,,
players,尼古拉斯,巴通姆,SF,29,200,200,3,48,2,2.1,0.8,6.3,0.41,4.5,0.32,0.9,63,3.4,57,4.7,45,36,1,0.3,87,,,,
players,凯利,奥伯尔,SF,22,200,200,29,48,1.1,2.7,0.84,5.1,0.41,4.3,0.33,0.8,65,3.9,60,1.1,44,54,0.9,0.4,85,,,,
players,卡里斯,勒夫特,SG,23,200,200,2,47,2.4,2.7,0.69,6.6,0.41,3.4,0.32,0.8,62,3,57,4.1,43,46,1.1,0.3,83,,,,
players,泰勒,约翰逊,SG,26,200,200,15,46,1.3,2,0.83,5.2,0.41,4.8,0.33,0.5,63,3.1,59,2.3,41,43,0.9,0.5,85,,,,
players,鲁迪,盖伊,SF,31,200,200,26,51,1.6,2.7,0.79,7.1,0.44,2,0.32,1.4,67,3.8,62,1.5,50,37,0.8,0.6,83,,,,
players,马科,贝里内利,SG,32,200,200,0,37,1,2.1,0.9,4.5,0.4,4.8,0.33,0.3,55,1.7,58,2,33,35,0.9,0.1,80,,,,
players,德安德鲁,乔丹,C,30,200,200,12,77,1.7,3.5,0.6,7.2,0.46,1,0.26,4.3,70,10.7,53,1.3,85,46,0.4,1,90,,,,
players,德阿龙,福克斯,SG,20,200,200,25,43,2.4,2.9,0.73,8.6,0.41,1.9,0.31,0.5,61,2.1,54,4.3,39,52,1,0.3,83,,,,
players,德雷蒙德,格林,PF,28,200,200,9,78,2.9,2.7,0.77,5.4,0.42,3.7,0.32,1.2,77,6.7,59,7.3,71,60,1.2,1.4,90,,,,
players,韦恩,艾灵顿,SG,30,200,200,15,38,0.7,1,0.83,2,0.4,7.6,0.35,0.3,58,2.7,63,1,33,35,0.6,0.1,82,,,,
players,博格丹,博格达诺维奇,SG,25,200,200,25,42,1.7,1.6,0.84,5.2,0.41,3.8,0.33,0.4,59,2.3,61,3.2,37,37,1,0.3,83,,,,
players,何塞,巴里亚,PG,34,200,200,6,43,1.9,1.8,0.78,5.4,0.4,4.4,0.32,0.3,56,2.8,57,6,37,35,0.5,0.1,80,,,,
players,约什,杰克逊,SG,21,200,200,23,45,1.7,3.1,0.61,7.7,0.4,2.8,0.3,1.1,60,2.9,52,1.2,43,47,0.9,0.5,81,,,,
players,特雷,莱尔斯,PF,22,200,200,7,49,0.9,2.3,0.69,4.9,0.43,3.3,0.33,0.9,64,4.5,63,1.3,45,51,0.5,0.5,82,,,,
players,凯利,奥利尼克,PF,27,200,200,15,50,2,2.2,0.75,4.7,0.42,3.4,0.33,1.1,62,4.4,61,2.3,47,40,0.8,0.4,84,,,,
players,德维恩,韦德,SG,36,200,200,15,51,2,2.9,0.7,7.9,0.43,1.5,0.32,0.8,65,3.1,61,3.5,47,35,0.9,0.7,82,,,,
players,马基夫,莫里斯,PF,28,200,200,29,50,1.6,1.7,0.84,6.2,0.42,2.7,0.32,1.1,62,4.5,59,1.5,47,36,0.8,0.5,85,,,,
players,艾森,伊利亚索瓦,PF,31,200,200,0,46,1,1.9,0.81,5,0.41,3.6,0.32,1.6,58,3.8,59,1.1,46,35,0.9,0.4,84,,,,
players,杰夫,格林,SF,31,200,200,5,40,1,3.1,0.87,5.8,0.42,1.8,0.31,0.9,59,2.5,56,1.3,38,35,0.5,0.4,82,,,,
players,弗兰克,卡明斯基,C,25,200,200,3,40,0.8,2.2,0.77,5.7,0.4,3.6,0.3,0.6,58,3.1,50,1.5,37,38,0.5,0.3,84,,,,
players,乔,英格尔斯,SF,30,200,200,28,48,1.8,0.6,0.82,2.6,0.41,5.5,0.36,0.3,61,3.8,66,4.1,41,35,1.1,0.2,86,,,,
players,保罗,加索尔,PF,38,200,200,26,63,1.5,2.7,0.78,6.7,0.43,1.7,0.33,1.6,68,6.7,64,3.2,61,35,0.3,1,85,,,,
players,伊斯梅尔,史密斯,PG,30,200,200,8,41,1.3,1.5,0.7,9.1,0.42,1,0.29,0.4,59,2.3,52,4.4,37,35,0.7,0.2,80,,,,
players,约吉,费雷尔,PG,25,200,200,6,40,1.1,1.4,0.81,4.5,0.4,4.3,0.33,0.4,56,2.9,58,2.2,35,35,0.7,0.1,83,,,,
players,乔,哈里斯,SG,26,200,200,2,38,1,1.3,0.8,3.2,0.41,4.7,0.34,0.7,55,2.8,61,1.5,36,35,0.5,0.2,81,,,,
players,CJ,迈尔斯,SG,31,200,200,27,38,0.5,1.2,0.84,2.1,0.4,6.3,0.35,0.3,59,1.7,62,0.7,33,35,0.7,0.4,79,,,,
players,乔治,希尔,PG,32,200,200,5,40,1.4,2.3,0.79,4.6,0.41,3,0.33,0.5,56,2.2,60,2.7,35,35,0.9,0.3,81,,,,
players,约翰,科林斯,PF,20,200,200,0,56,1.3,2.5,0.73,6.8,0.44,1,0.3,2.7,63,4.3,60,1,60,55,0.6,1.1,83,,,,
players,朗佐,鲍尔,PG,20,200,200,13,70,2.7,1.4,0.6,5.7,0.39,5.4,0.33,1.3,73,5.8,56,7.1,65,69,1.5,0.9,87,,,,
players,蒂龙,华莱士,SG,24,200,200,12,45,1.4,3.2,0.78,6.8,0.41,1.2,0.3,0.6,63,2.8,53,2.4,41,47,0.9,0.5,84,,,,
players,詹姆斯,约翰逊,SF,31,200,200,15,51,2.1,2,0.69,5.6,0.41,2.7,0.31,0.8,61,4,55,3.9,47,35,0.9,0.6,84,,,,
players,马库斯,斯玛特,PG,24,200,200,1,52,2.5,2.4,0.74,5.1,0.39,4.6,0.32,0.8,68,2.8,54,4.7,47,54,1.3,0.5,85,,,,
players,德维恩,戴德蒙,C,28,200,200,0,54,1.3,1.4,0.78,5.4,0.43,1.9,0.29,1.8,59,5.7,56,1.5,54,35,0.5,0.7,84,,,,
players,特里,罗齐尔,PG,24,200,200,1,48,0.9,1.6,0.8,4.6,0.4,4.5,0.34,0.8,67,3.7,59,2.4,44,53,1.1,0.2,81,,,,
players,杰迈克尔,格林,PF,28,200,200,14,47,1.3,1.9,0.74,6.1,0.41,2.3,0.31,2.5,58,4.9,55,1.2,52,35,0.6,0.3,84,,,,
players,贾马尔,克劳福德,SG,38,200,200,17,33,1.1,1.5,0.9,5,0.4,3.6,0.32,0.3,53,1,54,2.3,29,35,0.5,0.1,78,,,,
players,莱恩,安德森,PF,30,200,200,10,43,0.8,1.5,0.8,2.3,0.4,5.4,0.34,1.5,62,3.8,60,1,44,35,0.4,0.3,86,,,,
players,丹泽尔,瓦伦蒂内,SG,24,200,200,4,47,1.2,0.6,0.82,4.3,0.4,4.8,0.33,0.7,59,4.7,58,3.1,43,40,0.7,0.1,83,,,,
players,迈克尔,吉尔克里斯特,SF,24,200,200,3,45,0.6,2.3,0.69,8.1,0.42,1,0.28,1.2,60,3.3,50,1.1,44,41,0.8,0.5,84,,,,
players,德里克,罗斯,PG,29,200,200,5,32,1.8,2.6,0.85,6.8,0.4,1.5,0.29,0.6,54,1.2,49,1.6,30,35,0.2,0.3,77,,,,
players,格雷格,门罗,C,28,200,200,1,49,1.7,2,0.65,7.1,0.44,1,0.25,2.2,59,4.9,48,2.1,52,35,0.7,0.3,83,,,,
players,帕特里克,米尔斯,PG,29,200,200,26,37,1.4,1.3,0.88,3,0.4,4.8,0.34,0.3,58,1.6,59,2.6,33,35,0.7,0.1,80,,,,
players,艾尔,法鲁克,SF,27,200,200,24,57,1,1,0.74,3.6,0.39,4.9,0.34,1.2,63,6.1,59,1.1,53,40,0.9,0.7,86,,,,
players,马文,威廉姆斯,PF,32,200,200,3,43,0.8,1.4,0.88,3.3,0.4,3.7,0.33,1,56,3.8,60,1.1,41,35,0.7,0.4,84,,,,
players,凯尔,科沃尔,SG,37,200,200,5,34,0.7,1,0.89,2,0.4,5.3,0.35,0.3,54,1.8,62,1.3,30,35,0.3,0.4,79,,,,
players,雷吉,巴洛克,SG,27,200,200,8,37,0.6,0.6,0.68,3,0.42,3.9,0.34,0.3,58,1.9,64,1.3,32,35,0.8,0.2,82,,,,
players,马努,吉诺比利,SG,40,200,200,26,37,1.6,1.7,0.87,4.4,0.41,3.2,0.32,0.3,56,1.8,58,2.5,33,35,0.6,0.3,79,,,,
players,沙巴兹,内皮尔,PG,27,200,200,24,41,1.4,1.9,0.83,4.6,0.4,2.7,0.33,0.3,60,1.9,58,2.2,36,37,1.2,0.2,79,,,,
players,麦克,詹姆斯,PG,27,200,200,10,40,1.4,2.3,0.76,6.2,0.39,2.7,0.3,0.4,56,2.1,48,3.5,36,35,0.8,0.2,78,,,,
players,兰斯,史蒂芬森,PG,27,200,200,11,48,1.7,1.6,0.66,5.7,0.4,2.7,0.31,0.8,60,4.8,54,3,44,36,0.6,0.2,80,,,,
players,米洛斯,特奥多西奇,PG,31,200,200,12,42,2.2,0.8,0.86,3,0.39,5.7,0.33,0.5,58,2.6,55,5.3,38,35,0.5,0.1,81,,,,
players,迈克,斯科特,PF,30,200,200,29,37,1.1,1,0.68,4.5,0.43,2.3,0.32,0.6,55,2.7,61,0.9,34,35,0.4,0.2,80,,,,
players,贾巴里,帕克,PF,23,200,200,16,42,1,3.5,0.86,4.8,0.41,1.5,0.28,0.3,60,2.3,49,0.8,36,44,0.8,0.5,80,,,,
players,威尔森,钱德勒,SF,31,200,200,7,45,1.3,1.6,0.83,4.9,0.4,3,0.31,1.3,58,3.7,53,1.9,44,35,0.5,0.5,85,,,,
players,乔丹,克劳福德,SG,29,200,200,18,34,2,0.5,0.6,4.5,0.41,2.5,0.35,1,54,1,65,4.5,34,35,0.2,0.5,78,,,,
players,泰伦斯,罗斯,SG,27,200,200,21,44,1.1,1.6,0.74,4.1,0.39,3.9,0.32,0.5,59,2.7,53,1.6,39,35,1.2,0.4,82,,,,
players,蒙特雷斯,哈雷尔,PF,24,200,200,12,44,0.8,2.5,0.62,6.1,0.44,1,0.28,1.4,60,2.6,53,0.7,44,41,0.5,0.7,79,,,,
players,亚历克,伯克斯,SG,27,200,200,28,40,0.9,2.4,0.86,4.9,0.39,2.5,0.31,0.3,57,2.9,51,1.2,35,35,0.7,0.2,78,,,,
players,约翰,汉森,PF,27,200,200,16,60,1.2,2.3,0.6,6.3,0.44,1,0.28,2,64,4.9,53,1.4,60,42,0.5,1.4,85,,,,
players,狄龙,布鲁克斯,SF,22,200,200,14,39,1.3,1.4,0.72,4.9,0.4,2.7,0.32,0.5,55,2.6,54,1.3,35,39,0.8,0.3,84,,,,
players,DJ,奥古斯丁,PG,30,200,200,21,37,1.3,2.5,0.85,3,0.39,3.3,0.32,0.4,53,1.5,54,3.2,33,35,0.8,0.1,78,,,,
players,马尔钦,戈塔特,C,34,200,200,29,57,1.3,2.1,0.62,7,0.42,1,0.25,2.3,61,5.7,45,1.8,59,35,0.6,0.8,86,,,,
players,钱德勒,帕森斯,SF,29,200,200,14,38,1.1,1,0.6,3.2,0.41,3.7,0.33,0.5,54,2.4,59,2,34,35,0.5,0.3,80,,,,
players,丹尼,格林,SG,31,200,200,26,53,1.1,0.7,0.74,3.6,0.4,4.5,0.34,0.5,65,3.1,60,1.8,47,36,1,1.1,83,,,,
players,杰,克劳德,PF,28,200,200,28,39,0.8,1.7,0.85,3.6,0.39,3.6,0.32,0.8,58,2.5,53,1.1,37,35,0.8,0.2,84,,,,
players,伊曼纽尔,穆迪埃,PG,22,200,200,19,38,1.7,1.9,0.82,5.4,0.39,2.4,0.32,0.4,59,1.9,53,3,34,45,0.5,0.1,77,,,,
players,以赛亚,坎南,PG,27,200,200,23,40,1.5,2.6,0.9,3.6,0.38,3.3,0.31,0.3,58,2,51,3.8,35,35,0.8,0.1,79,,,,
players,特洛伊,丹尼尔斯,SG,27,200,200,23,29,0.7,0.9,0.9,2,0.38,5.5,0.34,0.3,49,1.1,57,0.6,26,35,0.2,0.1,78,,,,
players,斯坦利,约翰逊,SF,22,200,200,8,44,1,2,0.78,4.4,0.38,3.5,0.31,0.5,61,3.2,49,1.6,39,48,1.2,0.2,85,,,,
players,德文,哈里斯,PG,35,200,200,7,36,1.1,2.5,0.83,3.7,0.38,2.8,0.31,0.3,51,1.7,51,1.9,32,35,0.8,0.2,77,,,,
players,拉里,南斯Jr,SF,25,200,200,5,54,1,2,0.64,5.9,0.44,1,0.28,2.5,63,4.2,53,1.4,57,44,1.4,0.5,82,,,,
players,德隆,莱特,PG,26,200,200,27,47,1.3,1.9,0.87,4.3,0.41,2.1,0.32,0.7,64,2.4,56,2.7,42,44,1.1,0.5,80,,,,
players,杰里安,格兰特,PG,25,200,200,4,41,1.3,2.6,0.76,4.2,0.39,2.5,0.31,0.5,57,2.2,52,4.9,37,35,0.7,0.1,80,,,,
players,安德鲁,哈里森,PG,23,200,200,14,40,1.5,2.5,0.81,4.5,0.39,2.3,0.31,0.4,56,1.8,50,2.7,35,38,0.7,0.5,79,,,,
players,托尼,帕克,PG,36,200,200,26,39,1.4,1.4,0.66,7.1,0.42,1,0.29,0.3,57,2,52,4,34,35,0.6,0.1,78,,,,
players,艾利克斯,伦,C,25,200,200,23,54,1.2,3.2,0.73,5.3,0.42,1,0.25,2.6,60,5.1,45,1.2,58,41,0.4,0.8,83,,,,
players,JR,史密斯,SG,32,200,200,5,40,0.9,0.7,0.67,2.3,0.38,5.2,0.33,0.4,56,2.6,55,2,35,35,0.9,0.1,84,,,,
players,埃文,特纳,SF,29,200,200,24,40,1.4,1.4,0.84,5.9,0.4,1.5,0.3,0.4,56,3,50,2.2,35,35,0.6,0.3,83,,,,
players,韦恩,塞尔登,SG,23,200,200,14,35,1.8,1.9,0.73,3.9,0.39,3.2,0.32,0.5,54,1.3,53,1.8,32,35,0.6,0.1,79,,,,
players,加内特,坦普尔,SG,32,200,200,25,39,1.3,1.2,0.73,4,0.38,3.5,0.32,0.4,53,2,52,1.9,35,35,0.9,0.5,81,,,,
players,萨波,索夫洛萨,SG,34,200,200,28,45,0.8,1.4,0.82,4.1,0.41,2.2,0.31,0.8,56,3.5,55,0.9,42,35,1.4,0.3,80,,,,
players,德怀特,拜克斯,PG,29,200,200,8,35,1.5,1.4,0.86,5.4,0.4,1.5,0.31,0.3,53,1.4,54,2.3,31,35,0.5,0.1,75,,,,
players,马里奥,赫佐尼亚,SG,23,200,200,21,40,1.1,1,0.8,3.7,0.4,3.1,0.31,0.5,55,2.8,54,1.1,36,36,0.8,0.3,78,,,,
players,凯尔,安德森,SF,24,200,200,26,59,1.4,1.9,0.78,5.4,0.42,1,0.3,1.1,67,4.7,55,2.7,55,51,1.4,0.8,85,,,,
players,安东尼,托利弗,PF,33,200,200,8,35,0.8,1.6,0.8,2,0.39,4.4,0.33,0.5,52,2.3,57,1.2,32,35,0.3,0.3,81,,,,
players,特雷,伯克,PG,25,200,200,19,34,0.7,1.2,0.64,4.7,0.42,1.4,0.31,0.3,54,1.2,58,2.9,30,35,0.3,0.1,75,,,,
players,弗雷德,范弗里特,PG,24,200,200,27,42,0.9,1.2,0.87,3.7,0.4,3,0.33,0.3,62,2.1,57,3,36,46,0.9,0.2,78,,,,
players,达柳斯,米勒,SF,28,200,200,18,33,0.7,0.9,0.87,2,0.39,4.5,0.34,0.3,53,1.8,58,1.2,29,35,0.3,0.2,81,,,,
players,杰里,贝勒斯,PG,29,200,200,22,35,1.2,1.1,0.8,3,0.38,3.7,0.32,0.4,54,1.7,53,1.4,31,35,0.6,0.2,80,,,,
players,斯卡尔,拉比西埃,PF,22,200,200,25,44,1,1.8,0.75,6.3,0.4,1,0.3,1.5,57,3,51,0.9,45,42,0.5,0.7,80,,,,
players,杰拉米,格兰特,SF,24,200,200,20,46,0.8,2.6,0.67,4.3,0.41,1.3,0.29,1.2,60,2.9,50,0.8,44,42,0.4,0.9,81,,,,
players,德怀特,鲍威尔,PF,27,200,200,6,44,0.7,2,0.71,4.1,0.42,1,0.29,1.7,55,3.5,52,0.9,46,35,0.9,0.4,81,,,,
players,马里奥,钱莫斯,PG,32,200,200,14,42,1.8,2,0.84,4,0.37,2.9,0.3,0.3,53,2.5,46,3.1,36,35,1.2,0.2,79,,,,
players,马利斯,斯贝茨,PF,30,200,200,21,33,0.8,1.1,0.75,2.2,0.38,4.5,0.32,0.4,48,2.2,52,0.7,30,35,0.2,0.4,77,,,,
players,布林,福布斯,SG,24,200,200,26,33,0.6,0.9,0.61,3.6,0.39,3.4,0.32,0.3,55,1.4,54,1,29,35,0.4,0.1,79,,,,
players,贾莱特,杰克,SG,34,200,200,19,42,1.9,1.2,0.81,6,0.39,1.4,0.29,0.4,53,2.8,47,5.9,37,35,0.6,0.1,82,,,,
players,弗兰克,梅森,PG,24,200,200,25,37,1.3,2.2,0.76,5.4,0.38,1.5,0.31,0.4,54,1.7,51,2.9,33,35,0.5,0.1,77,,,,
players,科里,约瑟夫,PG,26,200,200,11,42,1,1.1,0.76,4.6,0.39,2.3,0.31,0.4,59,2.5,52,3.2,37,35,0.9,0.2,81,,,,
players,贾莱特,阿伦,C,20,200,200,2,46,0.9,1.8,0.77,5.1,0.42,1,0.27,1.9,58,3.2,50,0.6,48,47,0.4,0.8,81,,,,
players,拉简,朗多,PG,32,200,200,18,48,2.1,0.5,0.6,4.7,0.4,2.3,0.31,0.5,59,3.1,53,7.3,42,35,0.9,0.2,81,,,,
players,卢克,理查德,SF,31,200,200,10,44,1.2,1.4,0.69,2.7,0.4,3,0.32,0.4,60,2.9,54,1,39,35,1.2,0.4,84,,,,
players,TJ,麦康奈尔,PG,26,200,200,22,46,1.8,0.6,0.83,5.1,0.41,1,0.33,0.5,60,2.7,59,4.5,41,39,1.2,0.2,81,,,,
players,梅森,普拉姆利,C,28,200,200,7,57,1.6,2.7,0.6,5.4,0.43,1,0.25,1.9,61,4.1,45,2,57,36,0.7,1.2,83,,,,
players,托尼,斯内尔,SG,26,200,200,16,37,0.5,0.8,0.78,2.2,0.39,3.6,0.33,0.3,56,2,55,1.2,32,35,0.6,0.4,84,,,,
players,埃德里斯,阿德巴约,PF,21,200,200,15,49,0.9,2.7,0.73,4.8,0.42,1,0.28,1.7,61,3.7,48,1.6,50,51,0.6,0.7,82,,,,
players,乔,约翰逊,SF,37,200,200,28,37,1,0.8,0.83,4.5,0.38,2.6,0.29,0.4,50,3,47,1.4,33,35,0.4,0.2,80,,,,
players,道格,迈克德莫特,SF,26,200,200,6,33,0.6,0.9,0.76,3.6,0.39,2.5,0.31,0.6,51,1.8,53,1,30,35,0.2,0.2,80,,,,
players,大卫,韦斯特,PF,37,200,200,9,50,1.1,1.1,0.73,5,0.43,1,0.31,0.9,59,2.5,60,1.9,46,35,0.7,1.1,78,,,,
players,米尔扎,泰利托维奇,SF,32,200,200,16,34,0.7,0.5,0.6,2,0.39,4.5,0.34,0.3,50,2,59,1,30,35,0.4,0.1,77,,,,
players,安东尼奥,布莱克尼,SG,22,200,200,4,31,0.7,1.8,0.76,4.3,0.37,2.5,0.3,0.3,51,1.4,46,0.6,28,35,0.2,0.1,75,,,,
players,马基斯,克里斯,SF,21,200,200,23,52,1.4,2,0.6,3.5,0.38,2.7,0.3,0.9,59,4.3,49,1.2,48,47,0.7,1,81,,,,
players,詹姆斯,恩尼斯,SF,28,200,200,8,38,0.8,1.7,0.87,3.1,0.4,1.9,0.31,1.2,53,2.3,52,1.1,37,35,0.7,0.3,81,,,,
players,科迪,泽勒,PF,25,200,200,3,47,1.2,3,0.72,4.7,0.4,1,0.32,2.1,57,3.4,55,1,50,35,0.4,0.8,81,,,,
players,贾米尔,威尔森,SF,27,200,200,12,35,0.5,0.5,0.6,2,0.39,4.2,0.34,0.3,52,1.9,58,0.7,31,35,0.3,0.5,79,,,,
players,内内,希拉里奥,PF,35,200,200,10,38,0.8,1.9,0.65,4.6,0.42,1,0.27,0.9,54,2.5,49,1,36,35,0.5,0.2,78,,,,
players,德章泰,穆雷,SG,21,200,200,26,49,1.6,1.7,0.71,6.3,0.39,1,0.28,1.3,63,3.9,46,2.8,47,52,0.9,0.3,79,,,,
players,大卫,恩瓦巴,SG,25,200,200,4,44,0.9,2.9,0.61,4.4,0.4,1,0.29,1.1,56,3.2,49,1.3,42,35,0.7,0.5,80,,,,
players,伊塞亚,怀特海德,SG,23,200,200,2,35,1.7,1.4,0.68,4.7,0.39,1.1,0.31,0.3,52,1.6,53,1.4,31,35,0.6,0.1,75,,,,
players,卢克,肯纳德,SG,22,200,200,8,36,0.9,0.8,0.85,3.4,0.39,2.5,0.32,0.3,55,1.8,54,1.4,31,39,0.6,0.2,78,,,,
players,泰勒,尤利斯,PG,22,200,200,23,39,1.6,1.3,0.81,5.2,0.38,1.8,0.29,0.3,55,1.3,44,4,34,38,1,0.1,79,,,,
players,雅各布,珀尔特尔,C,22,200,200,27,50,0.9,1.3,0.6,4.7,0.44,1,0.3,2.1,63,2.6,57,0.5,52,49,0.3,1.2,82,,,,
players,特雷沃,布克,PF,30,200,200,22,41,1,1.7,0.69,4.9,0.41,1,0.28,1.7,54,3.2,48,1.3,43,35,0.5,0.3,80,,,,
players,泰勒,泽勒,C,28,200,200,16,39,0.9,1.3,0.67,4.6,0.41,1,0.28,1.5,52,3.1,47,0.6,40,35,0.2,0.5,80,,,,
players,雷蒙德,费尔顿,PG,34,200,200,20,37,0.9,0.6,0.75,4.1,0.38,2.5,0.31,0.3,53,1.8,50,2.6,32,35,0.6,0.2,76,,,,
players,约什,格雷,PG,24,200,200,23,50,1.3,2.3,0.67,5,0.36,2.5,0.31,0.5,62,2,46,3,44,44,2,0.5,78,,,,
players,韦斯利,约翰逊,SF,31,200,200,12,52,1,1,0.73,3.1,0.38,2.9,0.31,0.4,58,3.2,50,1,45,35,1.2,1.1,82,,,,
players,凯尔,奥奎因,C,28,200,200,19,53,1.3,1.8,0.75,4.3,0.42,1,0.25,1.5,57,4.2,44,1.9,51,35,0.4,1.1,81,,,,
players,尼克,杨,SF,33,200,200,9,31,0.5,0.6,0.7,2,0.39,3.6,0.33,0.3,53,1,55,0.4,28,35,0.4,0.1,77,,,,
players,帕斯卡尔,西亚卡姆,PF,24,200,200,27,48,0.9,1,0.6,3.9,0.4,1.9,0.28,1.1,63,3.3,47,1.8,45,46,0.9,0.5,82,,,,
players,艾尔,杰弗森,C,33,200,200,11,40,0.6,0.8,0.77,5.5,0.41,1,0.25,0.8,52,3,41,0.9,37,35,0.4,0.5,78,,,,
players,戈尔吉,吉昂,C,28,200,200,17,44,0.8,1.5,0.76,4.4,0.4,1,0.27,1.3,58,3.2,44,1,43,35,0.7,0.5,81,,,,
players,兰斯顿,加洛韦,PG,26,200,200,8,35,0.5,0.8,0.79,2,0.38,3.8,0.32,0.3,54,1.4,51,1.2,30,35,0.6,0.1,75,,,,
players,蒂莫西,鲁瓦乌,SG,23,200,200,22,32,0.8,1.2,0.79,2.4,0.37,3.4,0.31,0.3,53,1.3,49,1.2,29,35,0.3,0.1,77,,,,
players,泰森,钱德勒,C,35,200,200,23,53,1.3,2.2,0.62,4.1,0.42,1,0.25,3.1,54,6.5,43,1.2,60,35,0.3,0.6,85,,,,
players,帕特,康诺顿,SG,25,200,200,24,33,0.6,0.7,0.85,2.5,0.38,2.8,0.31,0.4,53,1.7,52,1.3,30,35,0.2,0.3,79,,,,
players,贾斯蒂斯,温斯洛,SF,22,200,200,15,48,1.2,1.1,0.69,4.8,0.38,1.4,0.31,1,59,4.5,50,2,45,44,0.6,0.5,82,,,,
players,特里斯坦,汤普森,C,27,200,200,5,43,0.6,1.6,0.6,4.4,0.42,1,0.25,2.1,55,4,43,0.6,46,35,0.3,0.4,82,,,,
players,贾雷尔,马丁,PF,24,200,200,14,42,1,1.2,0.81,4.6,0.39,1,0.29,1.3,54,2.5,47,0.6,41,35,0.6,0.7,81,,,,
players,德拉甘,本德尔,PF,20,200,200,23,41,1.2,0.5,0.79,2,0.37,3.7,0.32,0.4,53,3.3,51,1.4,36,40,0.3,0.6,82,,,,
players,诺曼,鲍威尔,SG,25,200,200,27,37,1.1,0.8,0.81,3.2,0.38,2.7,0.3,0.3,57,1.6,48,1.5,32,36,0.7,0.3,77,,,,
players,贾斯汀,安德森,SG,24,200,200,22,35,0.5,0.9,0.7,2.7,0.39,2.5,0.31,0.7,53,1.8,51,0.6,32,35,0.4,0.2,76,,,,
players,科斯塔,库佛斯,C,29,200,200,25,45,0.7,1.2,0.6,5,0.41,1,0.25,2,53,4.2,41,1.1,48,35,0.7,0.4,81,,,,
players,本,麦克莱默,SG,25,200,200,14,33,0.9,0.9,0.87,3.3,0.37,2.5,0.3,0.4,49,1.4,45,0.8,29,35,0.6,0.2,76,,,,
players,马尔科姆,德莱尼,PG,29,200,200,0,36,1.3,1.5,0.8,3,0.37,2.3,0.31,0.3,49,1.7,47,3,31,35,0.6,0.1,77,,,,
players,戴维斯,贝尔坦斯,PF,24,200,200,26,36,0.5,0.6,0.85,2,0.38,3.4,0.32,0.3,55,1.9,52,1,31,35,0.3,0.4,78,,,,
players,理查恩,福尔摩斯,PF,24,200,200,22,41,0.6,1,0.69,4.3,0.41,1,0.27,1.2,54,3.2,46,1.1,40,35,0.4,0.4,78,,,,
players,卢克,巴比特,SF,29,200,200,0,32,0.5,0.6,0.77,2,0.39,3,0.32,0.3,46,2.1,54,0.7,28,35,0.2,0.1,77,,,,
players,约什,哈特,SG,23,200,200,13,40,0.6,1.1,0.66,2.1,0.39,2.6,0.32,0.5,55,3,53,1.1,36,36,0.7,0.2,79,,,,
players,约迪,米克斯,SG,30,200,200,29,33,0.5,1.5,0.87,2.4,0.37,2.8,0.3,0.3,51,1.4,46,0.9,29,35,0.4,0.1,76,,,,
players,贾希尔,奥卡福,C,22,200,200,2,37,0.7,1.2,0.74,4.9,0.4,1,0.25,0.7,52,2.3,40,0.5,34,35,0.2,0.6,78,,,,
players,扎扎,帕楚里亚,C,34,200,200,9,43,1.2,1.3,0.82,4.1,0.42,1,0.25,1.2,55,3.7,43,1.6,42,35,0.6,0.2,79,,,,
players,马克,穆斯卡拉,PF,27,200,200,0,40,0.6,1,0.89,2.4,0.4,1.8,0.32,1,53,2.7,55,0.9,38,35,0.5,0.5,79,,,,
players,马克尔,富尔茨,SG,20,200,200,22,36,1.5,3,0.6,6.8,0.36,1,0.27,0.8,55,1.5,38,1.8,34,44,0.5,0.3,78,,,,
players,约纳斯,杰雷布科,PF,31,200,200,28,36,0.5,0.8,0.82,2.7,0.39,2,0.32,0.8,51,2.5,53,0.7,34,35,0.4,0.2,79,,,,
players,托马斯,萨托兰斯基,PG,26,200,200,29,38,0.8,1.2,0.72,3.1,0.4,1.2,0.32,0.8,56,1.6,57,3,36,35,0.7,0.1,77,,,,
players,OG,阿奴诺比,SF,21,200,200,27,37,0.6,0.8,0.72,2,0.39,2.9,0.31,0.6,59,1.8,52,0.8,34,48,0.8,0.1,81,,,,
players,内曼加,别利卡,PF,30,200,200,17,38,0.6,0.6,0.85,2.2,0.39,2.3,0.32,0.6,53,2.6,55,0.9,35,35,0.6,0.1,79,,,,
players,CJ,威廉姆斯,SG,28,200,200,12,37,0.6,0.5,0.79,3.1,0.39,2.1,0.31,0.4,54,1.2,51,0.9,32,35,0.9,0.5,78,,,,
players,欧米,卡斯比,PF,30,200,200,9,41,0.8,1.3,0.77,3.6,0.41,1,0.32,0.6,56,3.3,58,1,37,35,0.4,0.4,78,,,,
players,博班,马扬诺维奇,C,29,200,200,12,34,1.1,2.3,0.8,4,0.4,1,0.25,0.8,50,2.1,39,0.7,33,35,0.2,0.3,76,,,,
players,伊恩,克拉克,PG,27,200,200,18,32,0.7,0.8,0.68,3,0.38,2.4,0.3,0.3,51,1.4,47,1.2,28,35,0.3,0.1,76,,,,
players,肯尼思,法里德,SF,28,200,200,7,40,0.7,1.6,0.71,4.6,0.4,1,0.27,2.1,54,2.7,45,0.6,43,35,0.4,0.4,77,,,,
players,昆西,阿希,PF,27,200,200,2,39,1,1.1,0.82,2,0.36,4.1,0.31,0.7,51,3.6,46,0.7,36,35,0.5,0.3,81,,,,
players,贾斯汀,杰克逊,SF,23,200,200,25,33,0.6,0.5,0.64,3.3,0.38,2.3,0.3,0.4,50,1.9,46,0.8,30,35,0.4,0.1,79,,,,
players,俾斯麦,比永博,C,25,200,200,21,52,1.1,2,0.68,4.1,0.4,1,0.25,1.8,55,4.1,40,0.7,52,35,0.3,1.3,82,,,,
players,艾德,戴维斯,PF,29,200,200,24,51,0.9,1.6,0.67,3.9,0.41,1,0.27,2.5,57,4.8,47,0.5,55,35,0.5,0.7,81,,,,
players,贾旺,埃文斯,PG,21,200,200,12,39,1.1,1.2,0.79,5,0.36,1.3,0.29,0.3,56,1.8,42,2.4,34,41,0.9,0.2,77,,,,
players,莫里斯,哈克利斯,SF,25,200,200,24,41,0.7,0.8,0.68,2.9,0.39,1.8,0.31,0.7,56,2,51,0.7,38,35,0.7,0.7,80,,,,
players,阿隆,贝恩斯,C,31,200,200,1,45,0.9,1.1,0.75,5,0.39,1,0.25,1.5,56,3.8,38,0.9,45,35,0.3,0.6,81,,,,
players,安德烈,伊格达拉,SG,34,200,200,9,47,1,1.4,0.64,3.2,0.38,1.7,0.29,0.8,59,2.9,45,3.3,43,35,0.9,0.6,82,,,,
players,卢克,科内特,SG,23,200,200,19,68,0.5,0.5,0.6,2,0.37,5,0.32,0.5,66,5,50,1,60,54,1,2,79,,,,
players,迈克,亨利,SF,22,200,200,14,39,0.8,0.9,0.6,2,0.37,3.3,0.32,0.3,56,1.4,51,0.9,34,40,1.1,0.5,79,,,,
players,马克西,克勒贝尔,SF,26,200,200,6,39,0.5,0.7,0.7,2.9,0.39,1.7,0.29,1.1,51,2.1,47,0.7,38,35,0.4,0.7,78,,,,
players,谢尔文,马克,PG,29,200,200,21,38,0.9,1.4,0.75,3.2,0.38,1.3,0.29,0.3,51,2,46,3.8,33,35,0.6,0.1,76,,,,
players,PJ,塔克,SF,33,200,200,10,47,0.9,0.8,0.81,2,0.37,3.2,0.31,1.1,58,4.7,48,0.9,45,35,1,0.2,84,,,,
players,乔恩,洛伊尔,SF,29,200,200,8,37,0.9,1.9,0.87,4.1,0.37,1,0.27,0.9,51,3.1,39,0.6,35,35,0.2,0.4,78,,,,
players,弗兰克,尼利基纳,SG,19,200,200,19,39,1.9,0.9,0.7,4,0.36,1.8,0.3,0.3,55,1.7,45,3.3,34,43,0.9,0.2,79,,,,
players,肖恩,利文斯顿,PG,32,200,200,9,34,0.8,0.8,0.8,4.5,0.39,1,0.27,0.5,53,1.3,43,1.9,31,35,0.4,0.3,75,,,,
players,乔纳森,艾萨克,SF,21,200,200,21,48,1,1.2,0.78,3.7,0.38,1.2,0.29,0.8,58,2.9,45,0.7,44,46,0.7,1,80,,,,
players,劳尔,内图,PG,26,200,200,28,33,0.8,0.9,0.79,2.8,0.39,1.3,0.32,0.3,52,1.2,52,1.9,29,35,0.3,0.1,74,,,,
players,贾米尔,尼尔森,PG,36,200,200,8,37,1.3,0.5,0.77,2.3,0.37,2.5,0.31,0.3,50,2,47,3.7,32,35,0.5,0.1,78,,,,
players,乔丹,贝尔,PF,23,200,200,9,52,1,0.8,0.67,3.3,0.43,1,0.28,1.2,63,2.7,51,1.8,49,48,0.7,1.1,79,,,,
players,德扬泰,戴维斯,PF,21,200,200,14,40,0.6,0.9,0.69,3.5,0.42,1,0.27,1.1,53,2.4,48,0.5,39,37,0.3,0.7,77,,,,
players,丹尼尔,泰斯,PF,26,200,200,1,44,0.9,1.3,0.74,2.7,0.4,1,0.3,1.4,58,2.9,50,0.9,44,35,0.4,0.7,78,,,,
players,布兰登,怀特,SF,30,200,200,14,42,0.5,1.2,0.64,3.7,0.41,1,0.27,1.2,52,2.3,46,0.5,41,35,0.5,0.9,76,,,,
players,安德烈,罗伯森,SG,26,200,200,20,50,0.8,1,0.6,3.3,0.4,1,0.28,1.9,60,2.8,47,1.2,52,38,1.2,0.9,83,,,,
players,泰勒,卡瓦诺,SF,24,200,200,0,35,0.5,0.6,0.77,2,0.38,2.4,0.31,1.1,50,2.2,50,0.8,35,35,0.3,0.1,76,,,,
players,泰尔斯,琼斯,PG,22,200,200,17,40,0.7,0.9,0.89,2.6,0.39,1.4,0.3,0.3,58,1.5,49,2.8,35,44,1.2,0.1,77,,,,
players,马利克,蒙克,SG,20,200,200,3,31,0.5,0.5,0.71,2.3,0.36,3.1,0.31,0.3,50,1,45,1.2,27,35,0.3,0.1,74,,,,
players,伊凡,拉布,SF,21,200,200,14,34,0.9,0.7,0.82,3.3,0.42,1,0.27,1.3,52,2,49,0.7,35,36,0.2,0.3,75,,,,
players,索恩,马克,PF,21,200,200,16,44,0.6,1.3,0.69,2.9,0.38,1.4,0.3,1.1,58,2.4,46,0.6,42,45,0.5,0.9,80,,,,
players,特雷沃恩,格拉汉姆,SG,24,200,200,3,34,0.5,1,0.73,2.2,0.38,1.7,0.31,0.7,50,1.5,50,1,31,35,0.5,0.1,77,,,,
players,丹特,康宁汉姆,PF,31,200,200,2,38,0.5,0.7,0.6,2.3,0.38,2.1,0.3,1,52,2.8,47,0.5,36,35,0.6,0.3,81,,,,
players,文斯,卡特,SF,41,200,200,25,37,0.5,0.6,0.67,2.1,0.36,2.6,0.31,0.3,47,1.8,46,1.1,32,35,0.9,0.6,77,,,,
players,泰勒,多尔西,SG,22,200,200,0,31,0.5,0.9,0.69,2,0.36,2.4,0.31,0.3,49,1.4,47,1,28,35,0.2,0.1,74,,,,
players,德安德烈,本布里,SF,24,200,200,0,37,2,1.2,0.67,3.8,0.36,1.1,0.3,0.4,52,1.9,44,1.4,33,35,0.7,0.4,78,,,,
players,阿莱克斯,阿布林斯,SG,24,200,200,20,32,0.5,0.7,0.87,2,0.36,2.9,0.31,0.4,51,1.3,48,0.4,29,35,0.5,0.1,76,,,,
players,钱宁,弗莱,PF,35,200,200,5,35,0.5,0.5,0.9,2,0.39,2,0.3,0.3,49,2.3,49,0.6,30,35,0.4,0.3,76,,,,
players,罗伊斯,奥尼尔,SF,25,200,200,28,39,0.7,1.2,0.79,2,0.38,1.7,0.31,0.3,53,2.9,48,1.3,34,35,0.5,0.1,76,,,,
players,约翰尼,奥布莱恩特三世,PF,25,200,200,3,33,0.5,0.7,0.84,3.6,0.37,1.2,0.3,0.8,50,1.8,45,0.4,31,35,0.2,0.2,76,,,,
players,托尼,阿伦,SF,36,200,200,18,32,0.9,1,0.6,3.6,0.38,1,0.29,0.9,46,1.2,46,0.4,31,35,0.5,0.1,75,,,,
players,肖恩,基尔帕特里克,SG,28,200,200,16,31,0.6,1,0.9,2.1,0.35,2.4,0.29,0.3,48,1.6,41,0.8,27,35,0.2,0.1,73,,,,
players,威利,里德,C,28,200,200,5,35,0.5,1.3,0.6,2.9,0.42,1,0.29,0.8,50,2.1,52,0.3,33,35,0.2,0.5,76,,,,
players,丹纽尔,豪斯,SG,25,200,200,23,33,0.5,1.2,0.84,2.3,0.36,1.9,0.29,0.6,49,1.8,41,0.5,31,35,0.3,0.1,74,,,,
players,尼克,施陶斯卡斯,SG,24,200,200,2,31,0.7,0.7,0.8,2,0.36,2.6,0.32,0.3,48,1.5,48,0.9,27,35,0.2,0.1,75,,,,
players,阿米尔,约翰逊,PF,31,200,200,22,44,0.7,1.2,0.6,3.1,0.4,1,0.29,1.7,54,2.8,48,1.4,45,35,0.7,0.6,79,,,,
players,萨姆,德克尔,SF,24,200,200,12,34,0.5,0.9,0.67,3,0.38,1.1,0.27,0.7,51,1.9,42,0.6,32,35,0.4,0.1,76,,,,
players,以赛亚,泰勒,PG,24,200,200,0,32,0.8,1.4,0.63,3.2,0.37,1,0.29,0.3,49,1,43,2.2,28,35,0.4,0.2,74,,,,
players,乔丹,米基,PF,24,200,200,15,40,0.9,0.9,0.69,3.3,0.39,1,0.27,0.8,53,3.4,42,0.5,37,35,0.2,0.5,78,,,,
players,雅卡尔,桑普森,SF,25,200,200,25,39,0.5,0.5,0.9,2.8,0.41,1,0.32,1,52,2.7,57,0.5,37,35,0.3,0.6,77,,,,
players,伊曼,香珀特,SG,28,200,200,5,37,1.2,1.1,0.73,2.2,0.36,1.9,0.29,0.5,52,2.4,42,1.2,33,35,0.6,0.3,78,,,,
players,迈尔斯,普拉姆利,C,29,200,200,0,39,1.2,1.1,0.6,3.2,0.41,1,0.25,1.4,50,2.5,40,1,39,35,0.4,0.6,80,,,,
players,马修,德拉维多瓦,SG,27,200,200,16,35,1.3,0.7,0.9,2,0.36,2.1,0.31,0.4,52,1.4,46,3.8,32,35,0.4,0.1,78,,,,
players,季莫费,莫兹戈夫,C,32,200,200,2,34,1.2,1,0.76,2.5,0.39,1,0.25,1.1,47,2.2,39,0.3,33,35,0.2,0.4,77,,,,
players,吉列尔莫,埃尔南戈麦斯,C,24,200,200,19,34,1,1.1,0.6,2.9,0.41,1,0.25,0.8,50,1.7,41,0.8,32,35,0.3,0.3,76,,,,
players,托瑞,克雷格,SF,27,200,200,7,34,0.5,1.1,0.66,2,0.38,1.5,0.29,1,50,2,44,0.7,33,35,0.3,0.2,77,,,,
players,伊安,马辛米,C,31,200,200,29,38,1.2,1.6,0.74,2.7,0.4,1,0.25,1.6,51,2.1,39,0.7,40,35,0.5,0.5,79,,,,
players,阿德里安,佩恩,PF,27,200,200,21,32,0.5,1.2,0.83,2,0.41,1,0.32,0.4,47,1.4,57,0.3,28,35,0.4,0.1,74,,,,
players,迈克尔,卡特,PG,26,200,200,3,39,1,1.5,0.82,3,0.35,1.1,0.29,0.7,53,1.9,39,2.3,36,35,0.8,0.4,76,,,,
players,斯特林,布朗,SG,23,200,200,16,37,0.5,0.5,0.86,2.2,0.37,1.5,0.31,0.5,53,2.1,47,0.3,33,35,0.8,0.2,76,,,,
players,贾维尔,麦基,C,30,200,200,9,37,0.5,0.8,0.79,2.5,0.41,1,0.25,0.7,53,1.2,42,0.4,35,35,0.3,0.8,76,,,,
players,诺伦斯,诺尔,C,24,200,200,6,41,0.8,1.1,0.84,2.9,0.39,1,0.25,1.4,53,2.6,38,0.3,41,35,0.6,0.6,78,,,,
players,保罗,齐普泽,SF,24,200,200,4,34,0.8,0.5,0.67,2.3,0.36,1.9,0.3,0.3,48,2.2,44,0.8,30,35,0.4,0.2,76,,,,
players,扎克,科林斯,PF,20,200,200,24,39,0.8,0.6,0.6,2.7,0.36,1.5,0.3,0.7,54,2.7,44,0.8,36,41,0.3,0.5,78,,,,
players,乔,杨,PG,26,200,200,11,29,0.5,0.6,0.72,2,0.38,1.2,0.3,0.3,48,1,47,0.6,26,35,0.2,0.1,72,,,,
players,何塞,卡尔德隆,PG,36,200,200,5,32,0.7,0.5,0.74,2,0.38,1.5,0.31,0.3,46,1.2,50,1.9,28,35,0.5,0.1,75,,,,
players,兰斯,托马斯,PF,30,200,200,19,32,0.6,0.7,0.82,2,0.36,1.5,0.3,0.6,46,1.7,44,0.5,30,35,0.4,0.2,79,,,,
players,梅耶斯,伦纳德,PF,26,200,200,24,32,0.5,0.5,0.8,2,0.4,1,0.32,0.4,48,1.6,56,0.5,29,35,0.2,0.1,74,,,,
players,科比,西蒙斯,PG,21,200,200,14,34,0.8,0.5,0.9,2.7,0.37,1.1,0.28,0.3,52,1.3,41,1,30,37,0.7,0.3,75,,,,
players,克里斯蒂亚诺,费利西奥,C,26,200,200,4,32,0.6,1.1,0.6,2.7,0.4,1,0.24,1.1,46,1.7,38,0.7,32,35,0.2,0.2,77,,,,
players,沙巴兹,穆罕默德,SG,25,200,200,17,30,0.5,1,0.71,3.2,0.36,1,0.27,0.5,49,1,38,0.3,28,35,0.2,0.1,73,,,,
players,萨拉赫,梅杰里,C,32,200,200,6,46,0.6,1.1,0.6,2.3,0.41,1,0.25,1.5,50,2.8,41,0.6,46,35,0.4,1.2,77,,,,
players,塔里克,布莱克,C,26,200,200,10,38,0.8,1.3,0.6,2.4,0.4,1,0.25,1.2,54,1.8,40,0.3,38,35,0.4,0.6,77,,,,
players,拉蒙,塞申斯,PG,32,200,200,19,33,1.2,1.2,0.8,3.3,0.35,1,0.27,0.3,46,1.3,34,2.1,29,35,0.5,0.1,73,,,,
players,凯,费尔德,PG,23,200,200,8,30,1.1,0.8,0.9,3.2,0.34,1.3,0.28,0.3,48,1,35,1.3,27,35,0.2,0.1,72,,,,
players,杰弗瑞,洛文吉,PF,26,200,200,26,34,0.7,0.9,0.63,3.1,0.38,1,0.27,1.1,50,1.9,41,0.8,34,35,0.2,0.1,75,,,,
players,诺阿,冯莱,PF,22,200,200,24,40,0.5,0.9,0.74,2.7,0.38,1,0.29,1.1,53,4,46,0.4,39,35,0.2,0.3,78,,,,
players,帕特里克,麦考,SG,22,200,200,9,35,0.6,0.5,0.72,2.2,0.37,1.2,0.28,0.3,56,1.1,43,1.4,31,40,0.7,0.2,77,,,,
players,肯,伯奇,PF,25,200,200,21,38,0.6,0.9,0.6,2.9,0.39,1,0.27,1.7,52,2.2,42,0.6,40,35,0.4,0.5,76,,,,
players,谢赫,迪亚洛,PF,21,200,200,18,34,0.5,0.8,0.78,2.7,0.39,1,0.27,0.6,49,2.3,42,0.3,31,35,0.2,0.1,74,,,,
players,科里,布鲁尔,SG,32,200,200,13,33,0.7,0.9,0.64,2.3,0.37,1,0.27,0.4,46,1.3,39,0.7,29,35,0.7,0.2,74,,,,
players,肖恩,拉金,PG,25,200,200,1,32,0.5,0.6,0.86,2,0.36,1.3,0.3,0.3,52,1,44,1.2,28,35,0.4,0.1,73,,,,
players,韦斯利,艾旺杜,SG,23,200,200,21,33,0.5,0.7,0.72,2.5,0.37,1,0.28,0.5,48,1.5,42,1,30,35,0.5,0.1,75,,,,
players,埃梅卡,奥卡福,C,35,200,200,18,54,0.5,2,0.75,2.5,0.36,1,0.25,2.5,55,2.5,33,1,58,35,0.2,2,79,,,,
players,马拉奇,理查德森,SG,22,200,200,27,31,0.5,0.8,0.77,2,0.35,1.5,0.29,0.3,48,1.1,40,0.5,27,35,0.4,0.1,74,,,,
players,帕特里克,帕特森,PF,29,200,200,20,34,0.5,0.5,0.9,2,0.35,2.1,0.3,0.4,50,1.8,43,0.6,31,35,0.6,0.2,78,,,,
players,奥卡罗,怀特,PF,25,200,200,15,30,0.5,0.5,0.67,2,0.37,1.8,0.3,0.5,48,1.3,46,0.3,28,35,0.2,0.2,77,,,,
players,达雷尔,亚瑟,PF,30,200,200,7,31,1,0.5,0.67,2,0.37,1.3,0.29,0.3,46,1,44,0.5,27,35,0.5,0.1,74,,,,
players,杰森,史密斯,SF,32,200,200,29,29,0.5,0.7,0.88,2.7,0.35,1,0.27,0.7,45,1,34,0.5,28,35,0.2,0.4,73,,,,
players,马里克,比斯利,SG,21,200,200,7,31,0.5,0.5,0.67,2,0.36,1.4,0.29,0.3,50,1.1,42,0.6,27,35,0.3,0.1,73,,,,
players,辛达里厄斯,桑韦尔,SG,23,200,200,12,33,0.7,1,0.67,2,0.37,1,0.3,0.3,51,1.2,46,0.7,29,35,0.5,0.4,75,,,,
players,蒂姆,弗雷泽,PG,27,200,200,29,39,1.1,0.5,0.7,2.1,0.37,1,0.29,0.3,53,1.6,44,3.7,34,35,0.9,0.1,75,,,,
players,艾派,尤度,C,31,200,200,28,47,0.5,1.1,0.76,2.3,0.39,1,0.25,1.3,54,1.5,37,1,45,35,0.8,1.3,79,,,,
players,多里安,芬尼,SF,25,200,200,6,27,0.9,0.5,0.6,2,0.37,1.8,0.3,0.6,46,1,46,0.6,26,35,0.2,0.1,75,,,,
players,泰勒,恩尼斯,PG,23,200,200,13,33,0.5,0.5,0.72,2.5,0.36,1,0.27,0.3,49,1.2,37,1.7,29,35,0.4,0.2,73,,,,
players,胡安,埃尔南戈麦斯,PF,22,200,200,7,33,0.5,0.6,0.82,2,0.36,2,0.29,0.8,51,1.7,42,0.5,32,35,0.3,0.2,76,,,,
players,TJ,利夫,PF,21,200,200,11,30,0.5,0.5,0.6,2,0.38,1,0.31,0.6,50,1,50,0.3,28,35,0.2,0.1,75,,,,
players,凯文,卢尼,PF,22,200,200,9,38,0.5,1.1,0.6,2.2,0.4,1,0.27,1.2,56,1.7,45,0.6,37,40,0.2,0.6,77,,,,
players,小德里克,琼斯,SF,21,200,200,15,36,0.5,1.3,0.65,2,0.36,1,0.27,1.1,52,1,37,0.5,35,37,0.3,0.8,77,,,,
players,贾莱德,杜德利,SF,33,200,200,23,33,0.5,0.7,0.9,2,0.35,1.7,0.29,0.3,44,1.5,40,1.9,29,35,0.5,0.1,76,,,,
players,丹尼尔,汉密尔顿,SG,22,200,200,20,33,0.5,0.5,0.6,2,0.37,1.3,0.31,0.3,50,1.3,48,1.8,29,35,0.3,0.1,71,,,,
players,詹姆斯,杨,SG,22,200,200,22,26,0.5,1.2,0.67,2,0.35,2,0.29,0.3,47,1,40,0.4,23,35,0.2,0.1,73,,,,
players,阿隆,阿弗拉罗,SG,32,200,200,21,28,0.5,0.5,0.8,2,0.35,1.2,0.29,0.3,42,1.3,41,0.5,25,35,0.2,0.2,74,,,,
players,赛迪,奥斯曼,SF,23,200,200,5,32,0.5,0.6,0.6,2,0.38,1,0.3,0.3,49,1.5,49,0.4,28,35,0.3,0.1,74,,,,
players,德维恩,培根,SG,22,200,200,3,34,0.5,0.5,0.71,2.4,0.35,1,0.29,0.3,49,2.5,40,0.6,30,35,0.3,0.1,75,,,,
players,奎因,库克,PG,25,200,200,9,29,0.5,0.5,0.9,2,0.37,1.3,0.3,0.3,48,1,45,1.5,26,35,0.2,0.1,72,,,,
players,吉安,克拉维尔,SG,24,200,200,6,29,0.5,0.5,0.9,2,0.35,2.1,0.31,0.3,46,1,44,0.4,26,35,0.3,0.1,72,,,,
players,丹伊恩,多特森,SG,24,200,200,19,30,0.5,0.5,0.71,2,0.37,1.2,0.28,0.3,45,1.2,41,0.5,26,35,0.2,0.1,72,,,,
players,特伦斯,弗格森,SG,20,200,200,20,30,0.5,0.5,0.83,2,0.35,2,0.29,0.4,50,1,40,0.3,27,36,0.4,0.1,75,,,,
players,卢卡斯,诺奎拉,C,25,200,200,27,41,0.5,0.5,0.78,2,0.4,1,0.25,0.4,54,1.5,40,0.4,36,35,0.5,1,76,,,,
players,詹姆斯,迈克尔,PF,25,200,200,22,27,0.5,0.7,0.9,2,0.34,2.3,0.29,0.3,46,1,38,0.3,24,35,0.2,0.3,73,,,,
players,阿卜杜勒,纳迪尔,SF,24,200,200,1,30,0.7,0.5,0.6,2,0.35,1.4,0.3,0.3,49,1,42,0.6,27,35,0.2,0.1,74,,,,
players,布兰登,保罗,PG,27,200,200,26,32,0.5,0.7,0.61,2,0.37,1,0.29,0.3,49,1.1,42,0.7,28,35,0.5,0.1,72,,,,
players,亚历克斯,卡鲁索,SG,24,200,200,13,33,0.9,0.5,0.6,2,0.36,1,0.28,0.3,49,1,39,1.9,29,35,0.5,0.3,75,,,,
players,亨利,埃伦森,PF,21,200,200,8,31,0.5,0.5,0.6,2,0.35,1.2,0.3,0.3,48,1.6,41,0.4,28,35,0.2,0.1,73,,,,
players,拉沙德,沃恩,SG,21,200,200,13,29,0.5,0.5,0.67,2,0.36,1.5,0.3,0.3,48,1,45,0.6,26,35,0.2,0.1,72,,,,
players,克里斯,麦考伦,SF,23,200,200,29,29,0.5,0.8,0.64,2,0.37,1,0.27,0.4,48,1,39,0.3,26,35,0.2,0.3,71,,,,
players,德里克,怀特,PG,24,200,200,26,31,0.5,1.2,0.67,2,0.37,1,0.31,0.3,48,1.1,48,0.5,27,35,0.3,0.1,71,,,,
players,鲍比,布朗,PG,33,200,200,10,27,0.5,0.5,0.6,2,0.34,2,0.29,0.3,45,1,38,0.6,24,35,0.2,0.1,69,,,,
players,谢米,奥杰莱,PF,23,200,200,1,32,0.5,0.5,0.64,2,0.34,2,0.29,0.5,51,1.5,39,0.3,29,35,0.3,0.1,77,,,,
players,罗恩,贝克,SG,25,200,200,19,34,0.6,0.9,0.74,2,0.35,1.1,0.29,0.3,50,1,40,1.6,30,35,0.9,0.2,75,,,,
players,凯莱布,斯瓦尼根,PF,21,200,200,24,33,0.6,0.8,0.62,2.2,0.35,1,0.27,0.8,50,1.4,35,0.5,31,35,0.3,0.2,74,,,,
players,加里,佩顿二世,PG,25,200,200,5,30,0.5,0.5,0.67,2,0.36,1,0.27,0.4,47,1,36,0.9,27,35,0.2,0.2,71,,,,
players,杰森,特里,PG,40,200,200,16,29,0.5,0.5,0.9,2,0.36,1.5,0.29,0.3,42,1,42,0.7,26,35,0.5,0.2,72,,,,
players,约什,马格特,PG,28,200,200,0,29,0.5,0.7,0.9,2,0.36,1,0.31,0.3,45,1,47,2,26,35,0.2,0.1,71,,,,
players,马绍尔,普拉姆利,C,26,200,200,16,32,0.5,2.7,0.75,2,0.34,1,0.25,0.7,48,2,28,0.3,30,35,0.2,0.2,75,,,,
players,约什,胡斯蒂斯,SF,26,200,200,20,37,0.5,0.5,0.6,2,0.35,1.6,0.29,0.6,51,1.8,38,0.3,33,35,0.3,0.7,77,,,,
players,乔治斯,帕帕扬尼斯,C,21,200,200,25,32,0.5,0.5,0.6,2.6,0.36,1,0.25,0.8,48,1.5,32,0.6,30,35,0.2,0.4,75,,,,
players,阿隆,布鲁克斯,PG,33,200,200,17,27,0.5,0.5,0.67,2,0.36,1,0.29,0.3,43,1,41,0.7,24,35,0.2,0.1,69,,,,
players,凯尔,辛格勒,SF,30,200,200,20,27,0.5,1.2,0.6,2,0.35,1,0.3,0.3,43,1,41,0.3,24,35,0.2,0.1,71,,,,
players,德安德鲁,利金斯,SG,30,200,200,5,34,0.5,0.5,0.6,2,0.35,1.1,0.29,0.3,48,1.4,41,0.8,30,35,0.9,0.3,75,,,,
players,布里安特,韦伯,PG,25,200,200,10,34,0.5,0.5,0.9,2,0.36,1,0.31,0.3,49,1.2,45,1,30,35,0.8,0.2,72,,,,
players,戈登,海沃德,SF,28,200,200,1,30,0.5,0.5,0.6,2,0.41,1,0.29,0.3,53,1,50,0.3,26,35,0.2,0.1,72,,,,
players,杰伦,琼斯,SG,25,200,200,10,30,0.5,0.6,0.8,2,0.35,1,0.31,0.3,45,1.6,45,0.3,27,35,0.2,0.1,71,,,,
players,杰克,库利,SF,27,200,200,25,29,0.5,2,0.9,2,0.33,1,0.27,0.3,46,1,31,1,26,35,0.2,0.1,70,,,,
players,洛尔,邓,SF,33,200,200,13,30,1,0.5,0.6,2,0.37,1,0.26,0.3,45,1,38,1,26,35,1,0.1,75,,,,
players,达卡里,约翰逊,C,22,200,200,20,29,0.5,0.6,0.6,2,0.38,1,0.25,0.6,49,1,36,0.3,28,35,0.2,0.3,74,,,,
players,昆西,庞德塞特,SG,30,200,200,4,28,0.5,0.7,0.82,2,0.33,1,0.27,0.3,43,1,31,0.4,25,35,0.3,0.1,72,,,,
players,德里克,沃顿,PG,23,200,200,15,31,0.5,0.5,0.9,2,0.34,1.2,0.31,0.3,49,1,42,1.1,27,35,0.4,0.2,72,,,,
players,尼克,科里森,PF,37,200,200,20,27,0.5,0.7,0.6,2,0.4,1,0.26,0.3,40,1.1,42,0.3,24,35,0.2,0.1,72,,,,
players,亚历克,彼得斯,SF,23,200,200,23,31,0.5,0.5,0.9,2,0.33,2.3,0.27,0.4,47,1.6,32,0.8,28,35,0.2,0.2,73,,,,
players,布莱斯,约翰逊,PF,23,200,200,12,33,0.5,0.5,0.9,2,0.4,1,0.27,0.3,48,1.2,43,0.3,29,35,0.7,0.2,72,,,,
players,盖尔雄,亚布塞莱,PF,22,200,200,1,29,0.5,0.5,0.6,2,0.36,1,0.3,0.5,48,1,43,0.3,27,35,0.2,0.1,73,,,,
players,达米恩,威尔金斯,SF,38,200,200,11,26,0.5,0.5,0.75,2,0.34,1,0.27,0.3,40,1,33,0.5,24,35,0.2,0.1,72,,,,
players,乔金,诺阿,C,33,200,200,19,31,0.6,0.6,0.6,2,0.37,1,0.24,0.9,44,1.1,33,0.6,30,35,0.3,0.3,73,,,,
players,杰夫,维希,C,28,200,200,6,28,0.5,0.5,0.6,2,0.35,1.1,0.25,0.3,44,1,30,0.3,24,35,0.2,0.3,73,,,,
players,理查德,杰弗森,SF,38,200,200,7,27,0.5,0.5,0.6,2,0.35,1,0.28,0.3,40,1,37,0.6,24,35,0.2,0.1,72,,,,
players,安德鲁,博古特,C,33,200,200,13,35,0.8,0.5,0.9,2,0.4,1,0.24,1.1,45,2.3,37,0.7,35,35,0.2,0.6,75,,,,
players,乔尔,博伦博伊,PF,24,200,200,16,30,0.5,1,0.6,2,0.37,1,0.27,1,47,1,38,0.3,30,35,0.3,0.1,73,,,,
players,富尔坎,科尔克马兹,SG,20,200,200,22,29,0.5,0.5,0.9,2,0.33,1.3,0.27,0.3,47,1,32,0.3,26,35,0.2,0.1,71,,,,
players,埃里克,莫兰德,PF,26,200,200,8,39,0.5,0.5,0.6,2,0.37,1,0.27,1,50,2.5,39,1.1,38,35,0.4,0.6,76,,,,
players,阿方索,麦金尼,SF,25,200,200,27,27,0.5,0.5,0.67,2,0.37,1,0.28,0.3,46,1,42,0.3,24,35,0.2,0.1,71,,,,
players,瑞安,阿西迪亚科诺,PG,24,200,200,4,30,0.5,0.5,0.9,2,0.36,1,0.29,0.3,46,1,42,1.1,26,35,0.5,0.1,72,,,,
players,伊凯,阿尼博古,C,20,200,200,11,28,0.5,0.6,0.83,2,0.36,1,0.25,0.5,48,1,32,0.3,26,35,0.2,0.3,72,,,,
players,欧米尔,阿西克,C,32,200,200,18,31,0.5,0.9,0.6,2,0.36,1,0.24,0.5,43,2.1,30,0.3,29,35,0.2,0.1,75,,,,
players,马库斯,乔治,SG,24,200,200,17,26,0.5,0.5,0.6,2,0.35,1,0.27,0.3,46,1,36,0.3,24,35,0.2,0.1,71,,,,
players,特洛伊,威廉姆斯,SF,23,200,200,10,30,0.5,0.8,0.6,2,0.33,1.3,0.27,0.3,46,1,31,0.3,26,35,0.3,0.1,71,,,,
players,贾巴里,伯德,SG,24,200,200,1,28,0.5,1.3,0.6,2,0.33,1,0.27,0.3,46,1,31,0.3,25,35,0.3,0.1,71,,,,
players,马克尔,布朗,SG,26,200,200,10,28,0.5,0.5,0.6,2,0.33,1.3,0.27,0.3,44,1,33,0.5,25,35,0.2,0.1,71,,,,
players,达伦,希拉尔德,SG,25,200,200,26,28,0.5,0.5,0.86,2,0.33,1,0.27,0.3,45,1,31,0.8,25,35,0.2,0.1,71,,,,
players,周,琦,PF,22,200,200,10,29,0.5,0.7,0.7,2,0.33,1.1,0.27,0.3,48,1,32,0.3,25,35,0.2,0.4,73,,,,
players,伊维察,祖巴茨,C,21,200,200,13,27,0.5,0.5,0.9,2,0.35,1,0.24,0.3,46,1,29,0.3,24,35,0.2,0.1,73,,,,
players,洛伦佐,布朗,PG,27,200,200,27,29,0.5,0.5,0.6,2,0.34,1,0.26,0.3,45,1,32,1,26,35,0.3,0.1,71,,,,
players,杰克,莱曼,SF,24,200,200,24,28,0.5,0.5,0.67,2,0.33,1,0.27,0.3,46,1,33,0.3,24,35,0.2,0.1,72,,,,
players,安特,日日奇,C,21,200,200,5,28,0.5,0.5,0.71,2,0.36,1,0.25,0.4,48,1,31,0.3,25,35,0.2,0.3,73,,,,
players,亚历克斯,珀伊斯瑞斯,SF,24,200,200,11,26,0.5,0.5,0.6,2,0.36,1,0.29,0.3,43,1,41,0.3,23,35,0.2,0.1,71,,,,
players,托尼,布拉德利,C,20,200,200,28,29,0.5,0.5,0.9,2,0.33,1,0.24,0.5,47,1,26,0.3,26,35,0.2,0.1,73,,,,
players,泽维尔,孟福德,SG,26,200,200,16,27,0.7,0.7,0.6,2,0.33,1,0.26,0.3,44,1,31,0.3,24,35,0.3,0.1,69,,,,
players,约翰,霍兰德,SG,29,200,200,-1,27,0.5,0.5,0.6,2,0.33,1.2,0.28,0.3,44,1,35,0.3,24,35,0.3,0.1,70,,,,
players,DJ,威尔森,SF,22,200,200,16,27,0.5,0.5,0.6,2,0.38,1,0.3,0.3,45,1,47,0.3,24,35,0.2,0.1,70,,,,
players,查尔斯,库克,SG,24,200,200,18,26,0.5,0.5,0.6,2,0.33,1,0.27,0.3,44,1,32,0.3,23,35,0.2,0.1,69,,,,
players,雅各伯,威利,SF,23,200,200,2,32,0.5,0.5,0.6,2,0.33,1,0.31,0.4,46,1.8,41,0.4,29,35,0.2,0.1,72,,,,
players,安东尼斯,克利夫兰,SG,24,200,200,6,30,0.5,0.5,0.6,2,0.33,1,0.27,0.3,46,1,31,0.3,26,35,0.5,0.3,71,,,,
players,拉里,德鲁二世,PF,28,200,200,22,25,0.5,0.5,0.6,2,0.33,1,0.26,0.3,42,1,31,0.7,22,35,0.2,0.1,72,,,,
players,科尔,阿尔德里奇,C,29,200,200,17,27,0.5,0.5,0.6,2,0.34,1,0.24,0.3,43,1,27,0.3,24,35,0.2,0.1,72,,,,
players,约什,史密斯,PF,32,200,200,18,26,0.5,0.5,0.6,2,0.33,1,0.26,1,41,1,30,0.3,26,35,0.2,0.1,71,,,,
players,迪米特里厄斯,杰克逊,PG,23,200,200,10,29,0.8,0.5,0.6,2,0.33,1,0.27,0.3,46,1,31,0.4,26,35,0.3,0.1,69,,,,
players,雅各,伯普伦,PG,28,200,200,22,24,0.5,0.5,0.6,2,0.36,1,0.26,0.3,41,1,36,0.3,22,35,0.2,0.1,67,,,,
players,马特,科斯特洛,PF,24,200,200,26,34,0.5,0.5,0.6,2,0.34,1,0.27,0.3,47,2,32,0.3,30,35,0.2,0.7,73,,,,
players,乌杜尼斯,哈斯勒姆,PF,38,200,200,15,25,0.5,0.5,0.6,2,0.35,1,0.28,0.3,38,1,37,0.4,22,35,0.2,0.1,72,,,,
players,范德,布鲁,SG,25,200,200,13,26,0.6,0.5,0.6,2,0.33,1,0.26,0.3,43,1,30,0.6,23,35,0.2,0.1,72,,,,
players,朱利安,斯通,SG,29,200,200,3,29,0.5,0.5,0.6,2,0.36,1,0.31,0.3,43,1,47,0.9,26,35,0.2,0.1,69,,,,
players,内特,沃特斯,SG,27,200,200,28,25,0.5,0.5,0.6,2,0.33,1,0.26,0.3,42,1,31,0.3,23,35,0.2,0.1,69,,,,
players,曼古克,马西杨,PF,25,200,200,3,30,0.5,0.5,0.6,2,0.33,1,0.26,0.3,43,1.7,31,0.3,26,35,0.2,0.1,71,,,,
players,RJ,亨特,SG,24,200,200,-1,27,0.5,0.5,0.6,2,0.33,1,0.26,0.3,44,1,31,1,24,35,0.2,0.1,68,,,,
players,乔治,尼昂,PF,25,200,200,28,28,0.5,0.5,0.6,2,0.33,1,0.26,0.3,44,1,31,0.3,24,35,0.5,0.1,70,,,,
players,尼古拉斯,布鲁西诺,SG,25,200,200,0,27,0.5,0.5,0.6,2,0.33,1,0.26,0.3,42,1,31,0.3,24,35,0.2,0.1,69,,,,
players,布鲁诺,卡波科洛,SF,22,200,200,27,30,0.5,0.5,0.6,2,0.33,1,0.27,0.3,46,1,31,0.5,26,35,0.5,0.1,71,,,,
players,明达格斯,库兹敏斯卡斯,SF,28,200,200,19,24,0.5,0.5,0.6,2,0.33,1,0.26,0.3,41,1,30,0.3,21,35,0.2,0.1,69,,,,
players,泰勒,莱登,SF,22,200,200,7,25,0.5,0.5,0.6,2,0.33,1,0.26,0.3,43,1,31,0.3,22,35,0.2,0.1,69,,,,
players,约什,麦克罗伯茨,PF,31,200,200,6,24,0.5,0.5,0.6,2,0.33,1,0.26,0.3,40,1,30,0.3,21,35,0.2,0.1,70,,,,
players,贾雷尔,埃迪,SG,26,200,200,1,29,0.5,0.5,0.6,2,0.33,1,0.26,0.3,44,1,31,0.3,25,35,0.5,0.1,69,,,,
players,路易斯,蒙特罗,SG,25,200,200,8,27,1,0.5,0.6,2,0.33,1,0.26,0.3,42,1,30,0.3,24,35,0.2,0.1,69,,,,
players,达米安,琼斯,C,23,200,200,9,25,0.5,0.5,0.6,2,0.33,1,0.24,0.3,44,1,26,0.3,22,35,0.2,0.3,72,,,,
players,马库斯,佩吉,PG,24,200,200,3,31,0.5,0.5,0.6,2,0.33,1,0.26,0.3,44,2,31,0.3,27,35,0.2,0.1,68,,,,
,,,,,,,,,,,,,,,,,,,,,,,,,,,,,
// Rookies ,,,,,,,,,,,,,,,,,,,,,,,,,,,,,
//选秀,//姓,//名,//位置,//年龄,//高度,//宽度,//球队,//防御,//失误,//罚篮出手,//罚中率,//2分出手,//2分中率,//3分出手,//3分中率,//进攻篮板,//名望,//防守篮板,//快攻,//助攻,//个性,//潜力,//抢断,//盖帽,//体力,//特性,//城市,//省份,
// 索引,//仅一个,//全部,//C PF SF SG PG,//19-40,//170-222,//160-290,//0-29,//24-99,//0.3-4,//0.3-9,//0.3-0.9,//2-17,//0.3-0.7,//0.1-9,//0.1-0.5,//0.2-5,//1-100,//1-11,//10-100,//0.2-11,//15-98,//35-85,//0.1-2,//0-3,//32-100,//CG EX HF HH IH PT R SP,//城市,//省份,
Rookies,迈克尔,波特,SF,19,208.3,215,-3,61,2.45,2.83,0.836,11.33,0.505,2.53,0.35,1.67,60,5.75,52,1.86,68,81,0.97,0.48,72,USA,Missouri,Missouri,","
Rookies,马文,巴格列,PF,19,210.9,225,-3,64,2.95,2.41,0.656,12.5,0.478,1.86,0.216,1.97,58.5,5.99,45,1.04,70,74,0.57,1.52,74,USA,North Carolina,Duke,","
Rookies,德安德烈,艾顿,C,19,213.4,243,-3,60,1.8,3.5,0.806,9.5,0.498,1.8,0.235,1.97,57,6.35,37,1.86,60,61,0.75,1.15,57,USA,Arizona,Arizona,","
Rookies,卢卡,东契奇,SG,18,200.7,220,-3,51,2.84,2.83,0.836,8,0.457,2.26,0.35,1.07,54,3.59,62,4.71,91,76,1.02,0.35,71,Slovenia,,Ljubljana,","
Rookies,科林,塞克斯顿,PG,19,188.5,185,-3,51,2.95,4.83,0.856,13.83,0.45,3.73,0.302,1.17,30.5,2.87,91,1.86,58,84,1.1,0.03,83,USA,Alabama,Alabama,","
Rookies,温德尔,卡特,C,19,208.3,260,-3,74,1.81,2.33,0.626,8.83,0.539,0.4,0.188,1.97,51,5.03,38,1.31,43,59,0.38,1.52,71,USA,North Carolina,Duke,","
Rookies,罗伯特,威廉姆斯,C,20,207.8,240,-3,83,1.75,2.17,0.592,7.33,0.512,0.6,0.123,2.02,49.5,5.54,32,1.42,65,73,0.6,2.2,60,USA,Texas,Texas A&M,","
Rookies,凯文,诺克斯,SF,19,205.8,210,-3,54,2,2.83,0.706,10.83,0.471,1.93,0.245,1.42,48,4.91,71,1.77,50,66,0.81,0.67,68,USA,Kentucky,Kentucky,","
Rookies,穆罕默德,班巴,C,19,213.4,215,-3,77,1.7,2.83,0.676,5.83,0.533,0.33,0.197,2.02,55.5,5.27,41,0.67,56,64,0.46,1.81,61,USA,Texas,Texas,","
Rookies,加里,特伦特Jr,SG,19,198.2,215,-3,73,2.49,2.83,0.696,9.16,0.457,3.2,0.297,1.12,32,3.23,61,2.14,95,68,1.37,0.35,77,USA,North Carolina,Duke,","
Rookies,迈尔斯,布里奇斯,SF,19,202.9,230,-3,61,2.47,2.58,0.687,8.03,0.474,4.93,0.359,1.63,42,4.81,72,1.94,49,66,0.57,1.11,71,USA,Michigan,Michigan State,","
Rookies,米切尔,罗宾逊,C,19,216,225,-3,66,1.3,3.08,0.546,11.16,0.553,0.2,0.269,3.57,6.5,6.47,44,1.13,61,83,0.73,2.48,60,USA,Louisiana,Chalmette,","
Rookies,PJ,华盛顿,PF,19,203.2,235,-3,74,1.87,4.16,0.586,9.83,0.519,0.6,0.283,1.87,13.5,5.39,46,2.32,80,65,1.02,1.01,64,USA,Kentucky,Kentucky,","
Rookies,基利安,提利,PF,20,208.3,215,-3,62,1.77,1.66,0.776,7.83,0.485,1.4,0.364,1.57,37.5,5.39,46,1.68,81,80,1.37,0.56,68,USA,Washington,Gonzaga,","
Rookies,布鲁斯,布朗,SG,20,195.6,200,-3,56,1.99,2.66,0.736,5.83,0.471,2.13,0.321,0.97,31,3.11,70,3.15,71,66,1.26,0.24,72,USA,Florida,Miami,","
Rookies,特洛伊,布朗,SG,19,200.7,210,-3,60,2.47,3.75,0.806,9,0.457,2.13,0.24,1.27,19.5,4.19,72,2.96,55,74,1.31,0.13,81,USA,Oregon,Oregon,","
Rookies,米卡尔,布里奇斯,SF,21,200.7,200,-3,76,1.3,1.08,0.876,4.33,0.485,2.06,0.373,1.07,18,2.51,54,1.77,80,77,1.34,0.59,74,USA,Pennsylvania,Villanova,","
Rookies,特雷沃,杜瓦尔,PG,19,188.5,190,-3,53,2.42,2.5,0.626,5.66,0.444,0.8,0.207,0.77,21,1.91,82,4.25,82,64,1.07,0.03,93,USA,North Carolina,Duke,","
Rookies,阿利兹,约翰逊,PF,22,205.8,205,-3,71,2.27,3,0.666,6.5,0.464,2.4,0.359,1.67,25.5,5.87,50,1.77,75,57,0.46,0.16,75,USA,Missouri,Missouri State,","
Rookies,贾瑞德,范德比尔特,SF,19,205.8,215,-3,61,3.72,3,0.376,8.33,0.492,0.93,0.254,1.87,15,6.11,61,3.79,78,56,1.23,0.21,70,USA,Kentucky,Kentucky,","
Rookies,哈米杜,迪亚洛,SG,19,195.6,200,-3,49,2.65,4.08,0.636,9.66,0.471,2,0.221,1.17,22.5,3.35,81,2.05,72,80,1.1,0.24,73,USA,Kentucky,Kentucky,","
Rookies,以赛亚,哈滕斯坦,PF,19,213.1,245,-3,47,1.16,3.75,0.61,9.17,0.459,1.93,0.286,1.25,46.5,6,32,1.65,66,52,0.61,0.93,53,USA,Oregon,Eugene,","
Rookies,托马斯,怀尔德,PG,22,190.5,190,-3,62,1.98,3.34,0.83,8.5,0.459,3.06,0.396,0.95,10,2.76,81,3.67,51,74,1.07,0.27,73,USA,Michigan,Western Michigan,","
Rookies,贾伦,杰克逊Jr,PF,19,208.3,240,-3,56,2.2,2.33,0.716,6.5,0.464,3.46,0.369,1.22,50.5,3.83,47,1.04,96,70,0.97,0.91,73,USA,Michigan,Michigan State,","
Rookies,约什,奥科吉,SG,20,193.1,215,-3,54,2.08,3.33,0.749,9.78,0.452,1.33,0.354,1.61,7.5,2.75,74,1.6,51,72,1.05,0.6,62,USA,Georigia,Georgia Tech,","
Rookies,肯尼奇,威廉姆斯,SF,22,200.7,210,-3,62,1.23,2.08,0.59,5.17,0.486,2.27,0.343,1.95,1,5.76,51,2.66,91,79,1.17,0.51,80,USA,Texas,TCU,","
Rookies,杰伦,亚当斯,PG,22,188.5,190,-3,55,3.42,5.18,0.818,6.16,0.445,4.8,0.353,0.68,5,2.38,80,5.8,51,72,1.6,0.15,92,USA,New York,Saint Bonaventure,","
Rookies,比利,普雷斯顿,PF,19,208.3,240,-3,63,1.81,2.83,0.672,7.32,0.458,1.18,0.288,1.67,4.5,4.25,61,1.42,54,43,0.7,1.1,70,USA,Kansas,Kansas,","
Rookies,拉马尔,彼得斯,PG,20,183,184,-3,60,1.73,1.33,0.746,4.33,0.416,3.46,0.335,0.67,45,1.79,76,3.97,42,58,0.91,0.24,80,USA,Mississippi,Mississippi State,","
Rookies,阿隆佐,特里尔,SG,20,197.8,205,-3,56,1.68,2.82,0.81,7.99,0.46,3.2,0.367,1.07,17,3.1,82,2.74,85,81,0.41,0.1,82,USA,Arizona,Arizona,","
Rookies,德安东尼,梅尔顿,SG,20,190.5,195,-3,80,1.81,1.87,0.895,4.82,0.427,1.39,0.267,1.2,1,2.86,56,3.47,83,62,1.61,0.85,64,USA,California,USC,","
Rookies,雅各布,埃文斯,SF,21,198.2,210,-3,68,1.25,1.83,0.76,5,0.452,3.34,0.376,0.95,1,2.64,62,2.75,76,74,0.96,0.64,65,USA,Ohio,Cincinnati,","
Rookies,杰弗里,卡罗尔,SG,22,198.2,215,-3,51,1.56,2.5,0.8,8.16,0.486,2.67,0.385,1.15,1,3.6,71,1.28,64,67,0.85,0.19,72,USA,Oklahoma,Oklahoma State,","
Rookies,阿隆,霍乐迪,PG,21,185.5,185,-3,59,2.4,2.08,0.79,5.33,0.472,2.47,0.386,0.65,1,2.4,83,4.31,71,78,0.91,0.19,75,USA,California,UCLA,","
Rookies,沙克,米尔顿,SG,21,198.2,205,-3,48,1.62,1.56,0.747,4.71,0.439,3.66,0.4,0.36,1,2.76,71,4.08,83,74,1.12,0.23,91,USA,Texas,SMU,","
Rookies,德文特,格雷厄姆,PG,22,188.5,195,-3,60,1.68,1.33,0.76,4.16,0.425,4.47,0.405,0.65,1,2.16,73,3.94,74,36,1.33,0.24,90,USA,Kansas,Kansas,","
Rookies,伊利亚,斯图尔特,SG,22,195.6,190,-3,80,1.03,0.99,0.7,5.16,0.426,3.74,0.343,1.07,3,2.86,72,1.27,92,57,0.76,0.79,82,USA,California,USC,","
Rookies,艾萨克,邦加,SF,18,205.8,200,-3,51,2.17,1.47,0.85,4.55,0.462,1.55,0.363,0.95,1.5,3.81,66,3.03,96,64,1.13,0.2,72,Germany,,Neuwied,","
Rookies,八村,C,SF,20,203.2,225,-3,63,1.17,2.83,0.556,5.83,0.471,1.93,0.273,1.12,26.5,3.95,70,0.94,46,67,0.83,0.56,76,USA,Washington,Gonzaga,","
Rookies,梅洛,特里伯,PG,21,192.8,185,-3,52,3,2,0.82,6.66,0.438,3.8,0.295,0.65,1,2.76,71,3.67,76,48,1.07,0.21,81,USA,Maryland,Maryland,","
Rookies,延特,马丁,PF,22,203.2,240,-3,70,2.43,4.25,0.71,9.84,0.489,1.13,0.408,1.57,1,3.87,42,1.54,54,65,0.56,0.89,71,USA,Georgia,Georgia,","
Rookies,基米兹,米杜,PF,21,208.3,225,-3,45,2.03,2.5,0.726,9.33,0.492,0.2,0.235,0.97,20,4.79,31,1.13,70,57,0.62,1.07,65,USA,California,USC,","
Rookies,布莱登,麦考伊,C,19,213.4,255,-3,38,1.86,3.58,0.666,9.66,0.485,0.33,0.283,1.27,16.5,5.27,41,1.13,75,62,0.19,0.67,66,USA,Nevada,UNLV,","
Rookies,邓恩,阿德尔,SF,21,200.7,200,-3,46,1.4,2,0.77,4.84,0.432,2.93,0.315,1.25,12,6,47,2.11,83,53,0.34,0.53,81,USA,Kentucky,Louisville,","
Rookies,亚历克萨,伊里奇,SF,22,203.2,190,-3,61,1.71,1.75,0.716,5.83,0.471,1.93,0.35,0.72,1,2.87,46,1.59,50,55,0.75,0.32,60,Montenegro,,Niksic,","
Rookies,文斯,爱德华,SF,22,203.2,225,-3,61,1.73,1.66,0.816,5.5,0.471,2.13,0.388,0.77,1,3.95,56,3.24,50,66,0.49,0.4,69,USA,Indiana,Purdue,","
Rookies,卡梅隆,奥利弗,PF,21,205.5,235,-3,71,2.37,2.74,0.692,5.38,0.465,3.84,0.355,1.61,19.5,4.77,46,1.73,92,64,0.6,1.75,66,USA,Nevada,Nevada,","
Rookies,VJ,比奇姆,SF,21,205.5,201,-3,43,1.09,1.97,0.836,4.91,0.422,4.47,0.342,0.78,12,3.2,65,0.82,83,42,0.86,1.06,67,USA,Indiana,Notre Dame,","
Rookies,奥斯丁,怀利,C,20,210.9,255,-3,51,1.67,2.33,0.486,7.33,0.505,0.07,0.15,1.72,28.5,4.67,31,0.39,65,55,0.27,1.12,62,USA,Alabama,Auburn,","
Rookies,鲁迪恩,克鲁斯,SF,19,203.2,220,-3,44,2.03,1.75,0.716,5.16,0.457,1.53,0.269,1.37,21,3.83,62,1.5,43,54,0.89,0.11,53,Latvia,,Cesis,","
Rookies,格雷森,艾伦,SG,22,195.6,210,-3,58,2.24,3.08,0.816,4,0.423,4.46,0.364,0.87,16,2.63,70,3.33,32,55,0.73,0.08,78,USA,North Carolina,Duke,","
Rookies,JP,马库拉,SG,22,195.6,205,-3,61,2,2.33,0.79,6.84,0.432,3.33,0.319,0.8,1,2.52,70,2.94,75,58,1.06,0.16,77,USA,Ohio,Xavier,","
Rookies,奥布里,道金斯,SF,21,198.2,205,-3,58,1.04,0.83,0.796,4.5,0.505,2.86,0.412,0.97,13.5,2.63,69,1.04,75,57,0.7,0.19,75,USA,Florida,Central Florida,","
Rookies,奥米尔,尤尔特七世,C,20,213.4,250,-3,50,1.78,2.83,0.706,5.33,0.457,0.13,0.273,1.07,18,3.47,44,1.4,50,47,0.3,0.69,60,USA,North Carolina,NC State,","
Rookies,博里萨,西曼奇,PF,19,210.9,205,-3,61,0.99,0.99,0.655,4.56,0.428,2.26,0.317,1.24,1,3.51,41,1.69,47,50,0.33,0.93,64,Serbia,,Ljubovija,","
Rookies,约纳森,威廉姆斯,PF,22,203.2,225,-3,79,1.4,1.59,0.567,6.23,0.533,0.68,0.339,0.93,1,3.94,47,0.87,97,46,0.73,0.76,62,USA,Washington,Gonzaga,","
Rookies,阿尔法,卡巴,PF,21,210.5,235,-3,58,1.31,2.09,0.68,6.33,0.534,0.8,0.252,1.3,5,4.2,34,1.28,64,49,0.64,0.83,67,France,,Blois,","
Rookies,迈克尔,弗西克,C,21,220.7,220,-3,70,1.41,2.25,0.63,5.33,0.582,0.2,0.167,1.15,2,5.16,28,1.93,71,43,0.24,1.39,56,Slovak Republic,,Slovak Republic,","
Rookies,乔纳,博尔登,PF,21,208,195,-3,49,2,2.33,0.6,4.5,0.493,2.94,0.395,1.8,4,5.28,71,2.02,91,72,0.96,0.35,76,Australia,Victoria,Melbourne,","
Rookies,罗尔,阿尔金斯,SG,20,193.1,225,-3,58,1.82,1.58,0.73,5.17,0.439,2.26,0.343,0.95,10.5,3,74,2.11,88,47,0.8,0.48,67,USA,Arizona,Arizona,","
Rookies,莫里兹,瓦格纳,PF,21,210.9,235,-3,46,1.44,1.69,0.717,5.39,0.514,2.16,0.358,1.1,9,3.15,35,0.58,74,58,0.81,0.38,56,USA,Michigan,Michigan,","
Rookies,阿诺达斯,库博卡,SF,19,205.8,205,-3,45,1.63,1.97,0.736,4.24,0.443,3.14,0.342,1.13,1,2.84,58,1.55,51,39,0.7,0.5,54,Lithuania,,Marijampoles,","
Rookies,拉格雷德,维克,SG,21,195.6,180,-3,51,1.05,0.78,0.834,5.27,0.437,1.76,0.341,0.78,6,2.71,78,0.88,62,44,0.54,0.37,84,USA,Kansas,Kansas,","
Rookies,肯德尔,斯蒂芬森,SF,22,200.7,235,-3,47,1.03,0.66,0.74,2,0.411,6,0.324,0.4,5,1.92,73,1.65,88,42,0.56,0.21,61,USA,Nevada,Nevada,","
Rookies,拉,扎格拉克,SF,21,204.1,205,-3,49.7,2.84,2.83,0.856,5.83,0.471,1.93,0.283,0.77,3,4.19,54,2.78,50,43.2,1.42,0.4,63,Serbia,,Belgrade,","
Rookies,伊安,泰勒,PG,22,190.2,168,-3,31.7,1.8,4.08,0.807,8.17,0.439,1.2,0.282,0.28,5,1.91,60,4.18,44,46.6,0.86,0.12,75,USA,Texas,Texas,","
Rookies,朱勒,杰克逊,SF,21,204.1,201,-3,40,1.07,1.17,0.66,7.67,0.468,2,0.279,0.62,2,2.67,47,2.73,54,36.8,0.59,0.33,64,USA,North Carolina,North Carolina,","
Rookies,斯维亚托斯拉夫,米哈伊柳克,SG,22,203.2,205,-3,73,1.14,0.92,0.7,3.67,0.452,3.33,0.367,0.7,3,2.04,54,1.38,62,38,0.77,0.24,63,USA,Kansas,Kansas,","
Rookies,托马斯,威尔士,C,22,216,255,-3,51,0.42,1.66,0.836,6.16,0.485,0.13,0.288,1.57,1,4.79,30,1.13,100,58,0.33,0.69,62,USA,California,UCLA,","
Rookies,尼克,理查德斯,C,19,210.9,231,-3,65,1.6,2.5,0.626,7.66,0.505,0.07,0.283,1.52,28.5,5.51,34,0.58,62,69,0.59,1.52,61,USA,Kentucky,Kentucky,","
Rookies,纳吉尔,海耶斯,PF,21,204.2,235,-3,41,2.34,3.58,0.74,7.67,0.396,2.53,0.272,0.48,4,3.88,52,2.79,47,8,0.93,0.29,60,USA,Utah,Weber St,","
Rookies,弗拉特科,卡特,C,20,205.5,210,-3,38,1.27,2.08,0.86,4.67,0.466,2.33,0.367,0.7,2,2.28,34,1.47,75,24,1.01,0.4,58,Slovenia,,Koper,","
,,,,,,,,,,,,,,,,,,,,,,,,,,,,,
// Coaches ,,,,,,,,,,,,,,,,,,,,,,,,,,,,,
,Team ID,First,Last,Age,Position,Authority,Expectation,Personality,ShotSelection,BallMovement,Rebounding,Defence,Structure,DevShot,DevBallMovement,DevRebounding,DevDefence,DevFitness,FindTalent,FindPotential,Persuasion,Dedication,Desire,Potential,,,,,
Coaches,0,迈克,布登霍尔泽,50,HC,68,57,76,61,76,72,77,57,60,68,55,62,41,23,34,67,100,84,75,,,,,
Coaches,1,达尔文,汉姆,38,HC,78,69,50,64,81,65,63,82,62,76,75,64,57,43,30,78,87,90,83,,,,,
Coaches,2,布拉德,斯蒂文斯,42,HC,45,38,72,54,68,54,56,50,53,85,54,66,50,45,67,63,76,89,86,,,,,
Coaches,3,沃尔特,迈卡蒂,49,HC,61,61,72,52,74,75,52,100,53,61,80,85,49,55,54,73,80,12,71,,,,,
Coaches,4,肯,阿特金森,43,HC,66,61,70,54,72,79,69,79,55,80,66,80,56,45,37,80,95,38,64,,,,,
Coaches,5,雅克,沃恩,49,HC,76,71,70,80,73,54,54,78,58,61,52,74,71,68,67,68,73,32,77,,,,,
Coaches,6,斯蒂夫,克利福德,50,HC,68,50,75,50,67,70,63,96,70,60,65,70,60,30,35,80,85,99,72,,,,,
Coaches,7,帕特里克,欧文,47,HC,65,62,75,79,81,65,50,65,50,65,40,80,75,65,45,80,70,32,75,,,,,
Coaches,8,弗雷德,霍伊博格,59,HC,73,56,70,59,68,65,52,96,53,85,60,80,48,46,70,65,75,98,60,,,,,
Coaches,9,吉姆,博伊伦,45,HC,87,98,81,88,84,65,81,67,94,91,54,66,79,63,39,75,79,88,88,,,,,
Coaches,10,泰伦,卢,66,HC,80,79,65,72,81,65,77,64,63,73,54,36,85,61,65,76,88,47,62,,,,,
Coaches,11,拉里,德鲁,51,HC,67,59,70,75,72,67,77,77,54,75,58,80,58,51,52,74,82,37,60,,,,,
Coaches,12,里克,卡莱尔,54,HC,85,74,85,85,72,89,64,85,65,69,73,74,56,44,51,82,90,86,66,,,,,
Coaches,13,达雷尔,阿姆斯特朗,59,HC,51,37,75,60,67,61,77,63,68,66,64,80,59,32,22,81,78,32,65,,,,,
Coaches,14,迈克,马龙,43,HC,68,62,65,45,68,65,73,86,63,73,54,36,85,61,65,76,88,47,61,,,,,
Coaches,15,莱恩,鲍文,46,HC,81,64,80,65,68,84,56,81,62,64,60,71,74,34,49,85,79,35,70,,,,,
Coaches,16,斯坦,范甘迪,42,HC,84,59,92,84,92,65,66,81,73,91,54,66,50,45,67,63,76,89,84,,,,,
Coaches,17,蒂姆,哈达威,44,HC,79,56,70,77,76,79,74,75,55,80,66,80,56,45,37,80,95,38,68,,,,,
Coaches,18,斯蒂夫,科尔,44,HC,59,53,85,60,73,84,69,86,73,72,67,79,65,48,43,87,83,77,76,,,,,
Coaches,19,迈克,布朗,54,HC,56,48,65,57,70,65,54,76,63,73,54,36,85,61,65,76,88,47,64,,,,,
Coaches,20,迈克,德安东尼,53,HC,72,63,75,62,67,84,72,65,77,73,67,72,58,32,34,76,90,54,67,,,,,
Coaches,21,约翰,卢卡斯,43,HC,54,38,75,50,71,78,54,82,67,69,79,84,65,36,51,86,80,100,73,,,,,
Coaches,22,内特,麦克米兰,54,HC,59,41,75,51,76,66,81,48,75,73,66,79,49,66,36,85,95,53,76,,,,,
Coaches,23,普奥珀耶,琼斯,62,HC,42,42,65,64,63,47,77,61,62,61,53,58,57,72,69,71,80,47,56,,,,,
Coaches,24,道格,里弗斯,50,HC,66,58,80,69,68,71,52,78,75,73,65,62,52,32,36,73,80,58,70,,,,,
Coaches,25,塞姆,卡塞尔,45,HC,57,47,70,71,72,78,65,69,64,62,75,82,72,34,46,76,74,29,73,,,,,
Coaches,26,卢克,沃顿,66,HC,92,84,41,79,96,81,74,96,70,57,63,66,36,63,30,89,94,87,45,,,,,
Coaches,27,布雷恩,肖,52,HC,76,74,75,74,59,74,80,88,68,66,64,80,59,32,22,81,78,32,65,,,,,
Coaches,28,大卫,菲兹戴尔,52,HC,76,73,70,90,88,67,90,79,67,69,76,81,74,67,50,74,83,99,70,,,,,
Coaches,29,JB,比克斯塔夫,50,HC,74,66,75,85,76,63,84,73,73,66,62,59,67,53,39,74,77,43,86,,,,,
Coaches,0,埃里克,斯波尔斯特拉,41,AC,55,71,65,56,60,65,74,55,62,51,60,61,90,63,59,68,79,12,75,,,,,
Coaches,1,贾旺,霍华德,40,AC,60,68,70,57,55,68,68,60,60,51,66,77,69,66,62,67,68,4,70,,,,,
Coaches,2,贾森,基德,57,AC,65,60,70,67,68,63,69,60,67,62,60,63,52,59,57,68,73,64,60,,,,,
Coaches,3,格雷格,福斯特,47,AC,70,61,85,53,57,86,80,65,62,57,76,83,70,50,60,69,84,36,75,,,,,
Coaches,4,汤姆,锡伯杜,52,AC,55,70,55,52,54,63,70,63,62,62,60,66,98,61,60,64,63,74,90,,,,,
Coaches,5,里克,布伦森,62,AC,65,80,55,68,73,60,64,75,53,73,56,63,67,53,59,58,89,38,55,,,,,
Coaches,6,阿尔文,金特里,47,AC,55,57,65,59,64,48,54,55,52,71,46,55,76,79,53,59,58,53,65,,,,,
Coaches,7,罗伯特,佩克,48,AC,55,57,65,59,64,48,54,55,52,71,46,55,76,79,53,59,58,53,65,,,,,
Coaches,8,蒂姆,霍纳塞克,42,AC,70,52,80,79,82,62,64,53,81,90,57,67,81,53,67,67,79,48,75,,,,,
Coaches,9,莱恩,兰比斯,42,AC,65,56,65,57,59,51,85,62,48,54,55,82,73,66,54,76,73,38,72,,,,,
Coaches,10,卡尔,多诺万,47,AC,50,56,55,53,62,55,56,46,52,62,48,62,61,53,66,62,58,66,69,,,,,
Coaches,11,波派,奇克斯,47,AC,55,64,70,51,44,51,46,89,67,60,53,51,80,74,80,56,72,70,60,,,,,
Coaches,12,山姆,沃格尔,44,AC,70,68,75,70,84,53,57,59,70,74,51,62,54,50,54,65,65,58,80,,,,,
Coaches,13,詹姆斯,阿德尔曼,67,AC,80,70,55,72,78,53,53,50,71,72,52,54,68,61,58,53,63,35,55,,,,,
Coaches,14,乔纳森,布朗,67,AC,80,70,55,72,78,53,53,50,71,72,52,54,68,61,58,53,63,35,55,,,,,
Coaches,15,朱旺,奥布莱恩,42,AC,60,61,70,53,54,64,54,58,62,67,65,68,73,63,67,75,84,28,90,,,,,
Coaches,16,格雷,沃特森,43,AC,60,64,80,54,78,54,68,54,58,78,52,66,70,72,70,69,79,25,77,,,,,
Coaches,17,大卫,特里亚诺,52,AC,70,69,70,58,68,53,62,67,73,80,57,64,67,58,67,65,78,69,75,,,,,
Coaches,18,罗伯特,斯托茨,47,AC,60,70,75,54,58,49,53,59,77,83,48,69,71,65,62,69,78,67,88,,,,,
Coaches,19,吉米,莫兰,60,AC,60,55,65,54,49,64,58,54,64,52,72,71,68,62,68,62,79,73,64,,,,,
Coaches,20,毛里斯,乔格尔,47,AC,60,70,75,54,58,49,53,59,77,83,48,69,71,65,62,69,78,67,88,,,,,
Coaches,21,马里奥,盖茨,42,AC,60,72,65,53,57,64,56,60,59,63,73,72,69,74,69,62,67,39,68,,,,,
Coaches,22,迈克,波波维奇,67,AC,55,70,60,48,54,41,42,56,74,77,69,78,70,52,60,71,80,8,53,,,,,
Coaches,23,诺尔,汉蒙,47,AC,65,50,60,57,52,61,71,64,63,59,62,67,66,53,59,74,80,50,80,,,,,
Coaches,24,约翰,凯西,61,AC,65,65,65,65,65,65,65,65,65,65,65,65,65,65,65,65,65,65,65,,,,,
Coaches,25,科里斯,尼尔斯,44,AC,60,73,70,65,59,67,59,59,80,59,73,68,59,59,69,63,73,83,80,,,,,
Coaches,26,贝基,斯奈德,62,AC,65,65,60,59,56,64,58,69,53,56,58,64,58,49,52,69,68,41,60,,,,,
Coaches,27,纳吉尔,布莱恩特,70,AC,55,64,70,51,44,51,46,89,67,60,53,51,80,74,80,56,72,70,60,,,,,
Coaches,28,布瑞恩,布鲁克斯,38,AC,65,38,65,42,41,46,43,48,53,50,49,50,52,75,72,66,67,37,95,,,,,
Coaches,29,霍华德,罗伊,44,AC,70,68,75,70,84,53,57,59,70,74,51,62,54,50,54,65,65,58,80,,,,,
Coaches,-1,厄尔,斯奇尔斯,47,NA,57,57,80,78,71,65,66,56,81,77,69,70,54,43,29,89,80,25,73,,,,,
Coaches,-2,马丁,柯林斯,50,NA,66,62,75,69,67,75,82,70,71,66,82,76,46,41,60,87,78,81,75,,,,,
Coaches,-3,斯科特,斯科特,45,NA,62,33,70,61,65,67,71,65,71,68,65,68,50,47,27,68,75,4,70,,,,,
Coaches,-4,库鲁,科尔,55,NA,62,60,75,58,68,73,68,63,57,61,77,72,69,74,69,67,84,44,70,,,,,
Coaches,-5,JB,奥尼尔,53,NA,72,64,80,72,68,77,70,61,75,54,80,80,50,39,40,80,85,15,60,,,,,
Coaches,-6,菲儿,范甘迪,69,NA,80,81,95,93,95,83,97,88,61,70,65,82,57,53,54,92,88,27,60,,,,,
Coaches,-7,杰里,莱利,69,NA,80,70,75,82,85,85,86,96,65,62,63,65,62,63,64,84,85,86,60,,,,,
Coaches,-8,丹,奥拉朱旺,67,NA,70,71,75,70,70,75,70,75,65,67,68,69,73,57,57,86,83,10,60,,,,,
Coaches,-9,布朗,罗格斯,52,NA,75,82,75,73,69,64,68,73,67,68,61,70,68,64,64,71,75,81,70,,,,,
Coaches,-10,乔治,查瓦利亚,69,NA,70,56,85,82,81,64,61,69,51,70,63,56,68,50,42,79,85,44,60,,,,,
Coaches,-1,格雷莫,肯尼森,41,NA,70,72,90,59,62,63,62,65,67,70,69,60,64,50,51,71,78,32,85,,,,,
Coaches,-1,沙克,克里蒙斯,42,NA,80,68,95,58,52,66,69,57,71,52,74,75,53,51,52,86,88,50,80,,,,,
Coaches,-1,杰夫,彼得斯,54,NA,70,70,70,65,65,68,73,58,61,61,60,64,62,63,62,67,67,37,65,,,,,
Coaches,-1,帕特,卡萨不莱,67,NA,90,95,90,88,92,96,87,92,64,56,64,58,65,62,45,86,84,64,55,,,,,
Coaches,-1,哈基姆,布兰姆,50,NA,75,62,80,68,62,93,67,54,85,59,74,80,62,49,45,79,84,67,77,,,,,
Coaches,-1,莱斯,库尔特,67,NA,28,55,71,64,81,16,60,71,61,42,28,50,84,69,13,90,64,12,52,,,,,
Coaches,-1,萨尔,库特斯,62,NA,41,63,86,84,23,29,62,61,62,43,70,10,66,59,26,15,60,17,40,,,,,
Coaches,-1,迈克尔,布拉迪,55,NA,43,47,43,50,61,18,77,44,14,19,73,75,90,64,78,36,70,56,68,,,,,
Coaches,-1,萨米尔,罗森菲尔德,66,NA,29,64,43,62,28,48,44,68,77,34,78,40,29,51,18,66,83,37,76,,,,,
Coaches,-1,卢锡安,罗坎特思,62,NA,41,50,40,59,75,32,18,43,43,50,53,12,67,30,17,90,40,76,12,,,,,
Coaches,-1,达伦,纳瓦瑞德,55,NA,21,47,60,55,20,73,64,20,46,67,42,85,10,38,22,60,39,79,61,,,,,
Coaches,-1,基南,弗莱希曼,63,NA,60,41,34,63,61,21,34,47,12,77,21,56,56,56,33,78,34,36,43,,,,,
Coaches,-1,贾莱德,库特斯,59,NA,61,55,64,78,16,72,35,61,26,90,84,34,54,25,24,89,10,19,76,,,,,
Coaches,-1,席恩,布拉迪,48,NA,61,50,42,53,32,83,62,88,36,68,67,89,32,30,30,17,38,92,67,,,,,
Coaches,-1,卢锡安,罗森菲尔德,33,NA,70,38,72,44,55,45,51,52,51,30,34,32,51,70,32,53,25,2,17,,,,,
Coaches,-1,菲利克斯,罗坎特思,30,NA,49,65,40,47,34,89,31,80,40,71,34,72,55,67,86,42,48,14,89,,,,,
Coaches,-1,泰,纳瓦瑞德,33,NA,34,42,80,76,39,17,24,65,18,16,35,34,27,34,53,70,32,75,88,,,,,
Coaches,-1,尼尔,弗莱希曼,61,NA,88,46,18,22,81,44,10,65,11,32,25,76,34,50,90,29,27,18,45,,,,,
Coaches,-1,德兰德,麦克林,43,NA,89,37,45,48,18,60,17,25,57,12,50,63,39,30,42,37,66,45,84,,,,,
Coaches,-1,乔纳森,埃德米斯顿,45,NA,23,55,24,80,86,83,13,32,67,30,18,42,58,58,81,12,85,51,39,,,,,
Coaches,-1,摩西,约克,39,NA,23,56,25,69,89,66,38,58,13,72,24,50,50,19,19,13,42,57,83,,,,,
Coaches,-1,欧文,阿尔瓦雷斯,30,NA,74,54,61,39,22,26,64,86,74,83,46,70,72,17,53,41,74,14,87,,,,,
Coaches,-1,安德鲁,马凯特,61,NA,65,52,15,25,29,74,80,75,45,12,39,24,14,34,33,70,56,20,30,,,,,
Coaches,-1,艾德温,克勒蒙斯,53,NA,44,60,17,72,83,47,75,77,27,21,90,37,83,54,44,43,46,100,86,,,,,
Coaches,-1,托比厄斯,怀昂,44,NA,49,64,40,57,70,56,70,75,52,19,24,42,28,89,29,47,43,98,82,,,,,
Coaches,-1,琼斯,克恩,53,NA,63,53,52,50,83,66,57,50,38,18,13,41,41,20,56,60,54,5,82,,,,,
Coaches,-1,安德鲁,特里恩,43,NA,72,40,66,74,25,30,25,81,58,15,15,16,42,79,51,19,74,24,63,,,,,
Coaches,-1,奥托,阿尔伯特,40,NA,88,74,19,43,81,78,25,78,54,46,75,52,90,41,17,75,38,96,34,,,,,
Coaches,-1,爱德森,索斯沃斯,67,NA,90,58,17,80,15,73,51,29,33,60,44,50,59,55,60,78,51,78,79,,,,,
Coaches,-1,罗宾逊,德里克,55,NA,14,44,73,39,55,81,53,22,59,14,79,73,44,71,68,23,58,26,16,,,,,
Coaches,-1,马修,希斯特洛克,41,NA,21,57,54,76,55,29,87,20,81,73,61,14,11,74,28,61,86,41,24,,,,,
Coaches,-1,克里斯,迈克尔,41,NA,16,46,66,24,44,24,48,49,10,38,40,25,81,83,75,51,67,2,84,,,,,
Coaches,-1,林恩,特伯维尔,66,NA,64,54,75,22,25,90,39,15,88,73,76,55,83,52,48,74,47,22,51,,,,,
Coaches,-1,乔丹,兰吉,37,NA,47,46,45,56,83,24,61,15,44,87,36,73,82,81,69,13,49,88,59,,,,,
Coaches,-1,迈克尔,吉利奥,35,NA,81,64,38,77,86,65,63,42,54,88,33,40,76,88,87,69,44,36,58,,,,,
Coaches,-1,罗比,夏洛克,56,NA,13,50,65,22,90,81,25,48,82,78,21,21,79,79,51,61,76,68,29,,,,,
Coaches,-1,查西,诺瓦科夫斯基,55,NA,69,60,72,36,70,58,24,77,62,47,79,49,34,68,61,13,34,49,33,,,,,
Coaches,-1,伊斯瑞尔,德蕾莎,66,NA,73,61,36,22,50,42,55,90,50,68,21,55,42,34,77,89,69,100,26,,,,,
Coaches,-1,厄伯,盖斯,31,NA,54,48,88,25,36,67,64,32,32,61,68,23,81,18,77,84,12,45,68,,,,,
Coaches,-1,埃斯特班,伦切尔,42,NA,60,58,26,86,55,63,45,48,80,84,11,51,12,59,35,42,35,56,34,,,,,
Coaches,-1,梅哈米,施莱尔,53,NA,16,45,27,41,21,47,48,46,28,62,32,87,35,48,88,40,25,99,30,,,,,
Coaches,-1,比利,布罗考,51,NA,75,59,10,19,13,87,20,64,38,11,65,63,54,48,49,82,27,67,79,,,,,
Coaches,-1,道尼,丹尼斯,64,NA,81,41,18,46,13,10,59,15,27,88,68,52,39,34,90,23,52,58,29,,,,,
Coaches,-1,基尼,杰威尔,62,NA,24,49,70,45,37,60,32,19,38,78,44,16,35,40,21,71,75,5,52,,,,,
Coaches,-1,艾弗雷特,格雷索,48,NA,15,57,89,90,17,81,42,54,15,80,16,59,26,40,35,45,19,31,67,,,,,
Coaches,-1,卡莱布,伊斯特伍德,37,NA,29,47,78,46,43,16,13,82,63,26,28,65,65,40,21,33,49,91,34,,,,,
Coaches,-1,保罗,穆图姆博,38,NA,55,59,75,51,49,73,72,53,63,59,71,73,63,72,68,58,74,97,72,,,,,
